[{"source": "3643158729", "target": "12413022152", "highway": "tertiary", "length": "1222.877756638209", "color": "#32cd32"}, {"source": "3643158729", "target": "12231648554", "highway": "tertiary", "length": "3183.214844181159", "color": "#32cd32"}, {"source": "3643159626", "target": "12412961966", "highway": "tertiary", "length": "2071.7283056104657", "color": "#32cd32"}, {"source": "4567054190", "target": "12546376530", "highway": "tertiary", "length": "2480.922157550147", "color": "#32cd32"}, {"source": "5864929805", "target": "12768311726", "highway": "tertiary", "length": "1486.150382461384", "color": "#32cd32"}, {"source": "5864929805", "target": "12231648554", "highway": "tertiary", "length": "133.4383317433975", "color": "#32cd32"}, {"source": "12543684804", "target": "12543684802", "highway": "tertiary", "length": "62.742164231606104", "color": "#32cd32"}, {"source": "12546301379", "target": "12546301381", "highway": "residential", "length": "140.46084508987852", "color": "#ff69b4"}, {"source": "12546376566", "target": "12543684728", "highway": "tertiary", "length": "2489.0603890512434", "color": "#32cd32"}, {"source": "12546376611", "target": "12565546606", "highway": "residential", "length": "141.21634767994067", "color": "#ff69b4"}, {"source": "12546376615", "target": "12565546604", "highway": "tertiary", "length": "100.95865505743915", "color": "#32cd32"}, {"source": "12555934164", "target": "12543684800", "highway": "residential", "length": "98.03601360080684", "color": "#ff69b4"}, {"source": "617194802", "target": "12603839908", "highway": "secondary", "length": "1624.4241726066907", "color": "#ffa500"}, {"source": "10076202309", "target": "12603814230", "highway": "unclassified", "length": "294.558922466175", "color": "#808080"}, {"source": "10076202309", "target": "12603839908", "highway": "unclassified", "length": "907.5517910981275", "color": "#808080"}, {"source": "12603832609", "target": "12603832612", "highway": "primary", "length": "122.88199799893471", "color": "#1e90ff"}, {"source": "2315200832", "target": "12603839962", "highway": "primary", "length": "27.707663959397827", "color": "#1e90ff"}, {"source": "2315200832", "target": "12603804377", "highway": "primary", "length": "239.77948194576305", "color": "#1e90ff"}, {"source": "2315201180", "target": "12198813575", "highway": "primary", "length": "870.6028024994284", "color": "#1e90ff"}, {"source": "2328280192", "target": "12701899328", "highway": "primary", "length": "127.09321450399923", "color": "#1e90ff"}, {"source": "2339279292", "target": "12701899341", "highway": "unclassified", "length": "247.0930130850492", "color": "#808080"}, {"source": "2373910506", "target": "12541087070", "highway": "primary", "length": "38.19455994952253", "color": "#1e90ff"}, {"source": "2373910506", "target": "12541087025", "highway": "tertiary", "length": "1285.514610600984", "color": "#32cd32"}, {"source": "2385246423", "target": "12603832659", "highway": "primary", "length": "1084.3998794031295", "color": "#1e90ff"}, {"source": "3643158513", "target": "12603839958", "highway": "unclassified", "length": "9214.65869244405", "color": "#808080"}, {"source": "3643158513", "target": "12603804289", "highway": "tertiary", "length": "3030.5796099430354", "color": "#32cd32"}, {"source": "3643159350", "target": "12412961966", "highway": "tertiary", "length": "121.2078165126969", "color": "#32cd32"}, {"source": "3643159350", "target": "12412934739", "highway": "tertiary", "length": "187.71792382866172", "color": "#32cd32"}, {"source": "3643215129", "target": "12603804071", "highway": "tertiary", "length": "4433.373127416499", "color": "#32cd32"}, {"source": "3643215131", "target": "12535801394", "highway": "tertiary", "length": "2538.9978391998534", "color": "#32cd32"}, {"source": "3643215131", "target": "12541054592", "highway": "tertiary", "length": "4526.473512399463", "color": "#32cd32"}, {"source": "3643215137", "target": "12535801380", "highway": "tertiary", "length": "2528.4511126454213", "color": "#32cd32"}, {"source": "3643865431", "target": "12603804256", "highway": "tertiary", "length": "545.9536913986744", "color": "#32cd32"}, {"source": "3643865970", "target": "12603804044", "highway": "primary", "length": "1767.3109545039872", "color": "#1e90ff"}, {"source": "3643887189", "target": "12637937258", "highway": "tertiary", "length": "66.37969090406739", "color": "#32cd32"}, {"source": "3643887189", "target": "12637909763", "highway": "residential", "length": "163.71814884205574", "color": "#ff69b4"}, {"source": "3643887226", "target": "12637909767", "highway": "tertiary", "length": "24.60198023125164", "color": "#32cd32"}, {"source": "3643887226", "target": "12637937258", "highway": "tertiary", "length": "44.67725252995132", "color": "#32cd32"}, {"source": "3643887226", "target": "12637909781", "highway": "residential", "length": "36.00771674134711", "color": "#ff69b4"}, {"source": "3643887245", "target": "12637909779", "highway": "unclassified", "length": "567.2338833267236", "color": "#808080"}, {"source": "3643887259", "target": "12556117079", "highway": "residential", "length": "151.11727136996575", "color": "#ff69b4"}, {"source": "3643887268", "target": "12540965544", "highway": "tertiary", "length": "68.37092824942506", "color": "#32cd32"}, {"source": "3643887268", "target": "12556117087", "highway": "residential", "length": "162.63353018753475", "color": "#ff69b4"}, {"source": "3643887277", "target": "12540965544", "highway": "tertiary", "length": "1723.5756625597446", "color": "#32cd32"}, {"source": "3643887277", "target": "12535801394", "highway": "tertiary", "length": "486.59250283937445", "color": "#32cd32"}, {"source": "3643887277", "target": "12637909779", "highway": "tertiary", "length": "970.0935828363365", "color": "#32cd32"}, {"source": "3643887379", "target": "12535801380", "highway": "tertiary", "length": "428.129414248788", "color": "#32cd32"}, {"source": "3643887379", "target": "12539042866", "highway": "tertiary", "length": "239.59147995450874", "color": "#32cd32"}, {"source": "3643887379", "target": "12539042849", "highway": "residential", "length": "122.59239916536197", "color": "#ff69b4"}, {"source": "3643887410", "target": "12535801371", "highway": "primary", "length": "23.891130904864312", "color": "#1e90ff"}, {"source": "3643887410", "target": "12535801394", "highway": "tertiary", "length": "3030.6160273665814", "color": "#32cd32"}, {"source": "4546169366", "target": "12539042866", "highway": "tertiary", "length": "1853.8814945265858", "color": "#32cd32"}, {"source": "4546169366", "target": "12543614751", "highway": "tertiary", "length": "519.7358098631738", "color": "#32cd32"}, {"source": "4566686973", "target": "12565546604", "highway": "tertiary", "length": "153.13733413558737", "color": "#32cd32"}, {"source": "4566686973", "target": "12543684569", "highway": "tertiary", "length": "75.48780640232195", "color": "#32cd32"}, {"source": "5864929880", "target": "12768311726", "highway": "tertiary", "length": "465.46909623850246", "color": "#32cd32"}, {"source": "5864929901", "target": "12231648585", "highway": "unclassified", "length": "1885.9398627976686", "color": "#808080"}, {"source": "5864929901", "target": "12768304655", "highway": "unclassified", "length": "1679.470481269652", "color": "#808080"}, {"source": "5868899103", "target": "12603804140", "highway": "tertiary", "length": "8.321111935866519", "color": "#32cd32"}, {"source": "5868899103", "target": "12603804138", "highway": "primary", "length": "4131.894863786745", "color": "#1e90ff"}, {"source": "5868899148", "target": "12279688757", "highway": "tertiary", "length": "3932.1704904186226", "color": "#32cd32"}, {"source": "5868899167", "target": "12541087059", "highway": "tertiary", "length": "4839.444639381026", "color": "#32cd32"}, {"source": "5868899481", "target": "12762615594", "highway": "unclassified", "length": "101.64131151498071", "color": "#808080"}, {"source": "5868899490", "target": "12762615598", "highway": "tertiary", "length": "387.7425794575225", "color": "#32cd32"}, {"source": "5868899490", "target": "12762615594", "highway": "unclassified", "length": "161.3893338801071", "color": "#808080"}, {"source": "9835026105", "target": "12603804082", "highway": "tertiary", "length": "3467.946985835299", "color": "#32cd32"}, {"source": "9835026307", "target": "12638019561", "highway": "tertiary", "length": "1765.9383814667483", "color": "#32cd32"}, {"source": "9835026352", "target": "12638019561", "highway": "tertiary", "length": "958.8041837863179", "color": "#32cd32"}, {"source": "9835026424", "target": "12543684628", "highway": "tertiary", "length": "4879.306690004461", "color": "#32cd32"}, {"source": "9835026424", "target": "12543684629", "highway": "residential", "length": "356.1350254220546", "color": "#ff69b4"}, {"source": "9845666855", "target": "12543614749", "highway": "residential", "length": "119.65741331044023", "color": "#ff69b4"}, {"source": "10076202261", "target": "12603814205", "highway": "residential", "length": "10.256000685634667", "color": "#ff69b4"}, {"source": "10076202263", "target": "12603814229", "highway": "residential", "length": "10.65080682116007", "color": "#ff69b4"}, {"source": "10076202276", "target": "12603839907", "highway": "residential", "length": "184.78757514414656", "color": "#ff69b4"}, {"source": "10076202291", "target": "12603839944", "highway": "residential", "length": "176.81607999170419", "color": "#ff69b4"}, {"source": "10076202296", "target": "12603839904", "highway": "residential", "length": "96.81225597886048", "color": "#ff69b4"}, {"source": "10076202297", "target": "12603814216", "highway": "primary", "length": "63.819540083635296", "color": "#1e90ff"}, {"source": "10076202308", "target": "12603814230", "highway": "unclassified", "length": "11.979234340805847", "color": "#808080"}, {"source": "10994506551", "target": "12198813574", "highway": "unclassified", "length": "1235.8195504333266", "color": "#808080"}, {"source": "10994506554", "target": "12528960614", "highway": "unclassified", "length": "64.62955693718675", "color": "#808080"}, {"source": "10994506564", "target": "12528946656", "highway": "unclassified", "length": "294.97032104412256", "color": "#808080"}, {"source": "10994506573", "target": "12528946657", "highway": "unclassified", "length": "206.61737430055226", "color": "#808080"}, {"source": "10994506609", "target": "12528960609", "highway": "unclassified", "length": "289.3035132743395", "color": "#808080"}, {"source": "10994506609", "target": "12528960503", "highway": "unclassified", "length": "161.07495155525547", "color": "#808080"}, {"source": "10994506611", "target": "12279688793", "highway": "unclassified", "length": "608.6559695318887", "color": "#808080"}, {"source": "10994506621", "target": "12528946658", "highway": "unclassified", "length": "210.88410345751578", "color": "#808080"}, {"source": "10994506725", "target": "12198813488", "highway": "residential", "length": "486.7393856553289", "color": "#ff69b4"}, {"source": "10994506742", "target": "12198813487", "highway": "residential", "length": "168.98340241095573", "color": "#ff69b4"}, {"source": "11602174988", "target": "12603804138", "highway": "tertiary", "length": "2545.3366443302903", "color": "#32cd32"}, {"source": "11602174988", "target": "12541087060", "highway": "tertiary", "length": "3100.8444038819785", "color": "#32cd32"}, {"source": "11795256812", "target": "12528686703", "highway": "primary", "length": "9.369147943906523", "color": "#1e90ff"}, {"source": "11971367880", "target": "12535801371", "highway": "primary", "length": "26.100626646141922", "color": "#1e90ff"}, {"source": "11971367917", "target": "12543640708", "highway": "primary", "length": "237.46898707980185", "color": "#1e90ff"}, {"source": "11971367917", "target": "12543640713", "highway": "tertiary", "length": "70.45692950942417", "color": "#32cd32"}, {"source": "11971367948", "target": "12603804108", "highway": "primary", "length": "3082.8772031044114", "color": "#1e90ff"}, {"source": "11971384673", "target": "12543614760", "highway": "primary", "length": "141.55786715912205", "color": "#1e90ff"}, {"source": "11971384679", "target": "12638229749", "highway": "primary", "length": "152.6412185250115", "color": "#1e90ff"}, {"source": "11971384688", "target": "12638015721", "highway": "primary", "length": "633.6017476910207", "color": "#1e90ff"}, {"source": "11971605181", "target": "12198813578", "highway": "primary", "length": "155.70424043288415", "color": "#1e90ff"}, {"source": "11971605182", "target": "12198813550", "highway": "primary", "length": "99.3826751200103", "color": "#1e90ff"}, {"source": "11971605185", "target": "12198813551", "highway": "primary", "length": "11.936753611453353", "color": "#1e90ff"}, {"source": "11971605185", "target": "12198813551", "highway": "unclassified", "length": "1190.6721289256498", "color": "#808080"}, {"source": "11971605189", "target": "12198813486", "highway": "primary", "length": "122.97682820956786", "color": "#1e90ff"}, {"source": "11971605197", "target": "12528686702", "highway": "primary", "length": "13.706147035895127", "color": "#1e90ff"}, {"source": "12037644493", "target": "12603832612", "highway": "residential", "length": "59.591385041745816", "color": "#ff69b4"}, {"source": "12037644497", "target": "12603814228", "highway": "residential", "length": "11.049200839700141", "color": "#ff69b4"}, {"source": "12037644497", "target": "12603814229", "highway": "primary", "length": "31.466998188725153", "color": "#1e90ff"}, {"source": "12037644500", "target": "12603814226", "highway": "residential", "length": "145.13155939456678", "color": "#ff69b4"}, {"source": "12037644504", "target": "12603814204", "highway": "primary", "length": "44.98773033816162", "color": "#1e90ff"}, {"source": "12037644522", "target": "12603814228", "highway": "residential", "length": "102.8710500859536", "color": "#ff69b4"}, {"source": "12039323724", "target": "12541072344", "highway": "residential", "length": "40.28265084644448", "color": "#ff69b4"}, {"source": "12039323725", "target": "12541072344", "highway": "residential", "length": "36.22399821140721", "color": "#ff69b4"}, {"source": "12039323726", "target": "12541072342", "highway": "residential", "length": "39.951454401252015", "color": "#ff69b4"}, {"source": "12039323727", "target": "12541072342", "highway": "residential", "length": "36.58385363051977", "color": "#ff69b4"}, {"source": "12039364846", "target": "12701899328", "highway": "primary", "length": "58.72248327174746", "color": "#1e90ff"}, {"source": "12039383619", "target": "12762615598", "highway": "tertiary", "length": "301.2203750434711", "color": "#32cd32"}, {"source": "12039383619", "target": "12541087041", "highway": "tertiary", "length": "23.48763132980898", "color": "#32cd32"}, {"source": "12039383632", "target": "12541087059", "highway": "tertiary", "length": "17.879517567546564", "color": "#32cd32"}, {"source": "12039383635", "target": "12541087060", "highway": "tertiary", "length": "23.694675819375792", "color": "#32cd32"}, {"source": "12198813371", "target": "12198813492", "highway": "unclassified", "length": "539.5993684084408", "color": "#808080"}, {"source": "12198813373", "target": "12528946695", "highway": "unclassified", "length": "380.6337407361468", "color": "#808080"}, {"source": "12198813374", "target": "12528960614", "highway": "unclassified", "length": "230.76607271167563", "color": "#808080"}, {"source": "12198813375", "target": "12528960504", "highway": "unclassified", "length": "122.16019676635605", "color": "#808080"}, {"source": "12198813377", "target": "12198813501", "highway": "unclassified", "length": "805.290753485674", "color": "#808080"}, {"source": "12198813378", "target": "12528960504", "highway": "unclassified", "length": "153.06850107614753", "color": "#808080"}, {"source": "12198813416", "target": "12528960501", "highway": "unclassified", "length": "227.7035804517162", "color": "#808080"}, {"source": "12198813418", "target": "12198813457", "highway": "unclassified", "length": "509.08726279591065", "color": "#808080"}, {"source": "12198813422", "target": "12198813456", "highway": "tertiary", "length": "511.18774660564316", "color": "#32cd32"}, {"source": "12198813435", "target": "12198813484", "highway": "primary", "length": "37.422073325142414", "color": "#1e90ff"}, {"source": "12198813445", "target": "12198813467", "highway": "unclassified", "length": "8.52496614629052", "color": "#808080"}, {"source": "12198813445", "target": "12198813467", "highway": "unclassified", "length": "238.6730359388463", "color": "#808080"}, {"source": "12198813449", "target": "12198813458", "highway": "unclassified", "length": "510.8097918217041", "color": "#808080"}, {"source": "12198813450", "target": "12198813455", "highway": "unclassified", "length": "9.46832763330808", "color": "#808080"}, {"source": "12198813450", "target": "12198813465", "highway": "unclassified", "length": "516.9829702822003", "color": "#808080"}, {"source": "12198813452", "target": "12198813456", "highway": "tertiary", "length": "7.972127192938225", "color": "#32cd32"}, {"source": "12198813452", "target": "12528686788", "highway": "tertiary", "length": "315.802377834178", "color": "#32cd32"}, {"source": "12198813453", "target": "12198813466", "highway": "unclassified", "length": "520.943991573835", "color": "#808080"}, {"source": "12198813453", "target": "12198813454", "highway": "unclassified", "length": "11.348517314558167", "color": "#808080"}, {"source": "12198813454", "target": "12198813459", "highway": "unclassified", "length": "9.93098185977628", "color": "#808080"}, {"source": "12198813454", "target": "12198813452", "highway": "unclassified", "length": "318.14193082502743", "color": "#808080"}, {"source": "12198813455", "target": "12198813460", "highway": "unclassified", "length": "12.220282995050521", "color": "#808080"}, {"source": "12198813455", "target": "12198813453", "highway": "unclassified", "length": "357.88432554903744", "color": "#808080"}, {"source": "12198813456", "target": "12198813452", "highway": "tertiary", "length": "7.972127192938225", "color": "#32cd32"}, {"source": "12198813456", "target": "12198813459", "highway": "unclassified", "length": "318.1601835696233", "color": "#808080"}, {"source": "12198813456", "target": "12198813422", "highway": "tertiary", "length": "511.18774660564316", "color": "#32cd32"}, {"source": "12198813457", "target": "12198813450", "highway": "unclassified", "length": "12.2824458168486", "color": "#808080"}, {"source": "12198813458", "target": "12198813453", "highway": "unclassified", "length": "10.011231757830794", "color": "#808080"}, {"source": "12198813458", "target": "12198813460", "highway": "unclassified", "length": "357.77842756845934", "color": "#808080"}, {"source": "12198813459", "target": "12198813446", "highway": "unclassified", "length": "510.8317780204562", "color": "#808080"}, {"source": "12198813459", "target": "12198813458", "highway": "unclassified", "length": "11.384926313867776", "color": "#808080"}, {"source": "12198813460", "target": "12198813457", "highway": "unclassified", "length": "9.448413862943351", "color": "#808080"}, {"source": "12198813460", "target": "12198813420", "highway": "unclassified", "length": "509.0858049624794", "color": "#808080"}, {"source": "12198813461", "target": "12198813463", "highway": "unclassified", "length": "10.561103329697444", "color": "#808080"}, {"source": "12198813461", "target": "12198813463", "highway": "unclassified", "length": "1199.4017840664721", "color": "#808080"}, {"source": "12198813463", "target": "12198813468", "highway": "unclassified", "length": "10.20513506030513", "color": "#808080"}, {"source": "12198813463", "target": "12198813448", "highway": "unclassified", "length": "360.7272219901913", "color": "#808080"}, {"source": "12198813465", "target": "12198813461", "highway": "unclassified", "length": "10.257349967198468", "color": "#808080"}, {"source": "12198813466", "target": "12198813448", "highway": "unclassified", "length": "8.541640944486945", "color": "#808080"}, {"source": "12198813466", "target": "12198813468", "highway": "unclassified", "length": "360.74322803418494", "color": "#808080"}, {"source": "12198813467", "target": "12198813454", "highway": "unclassified", "length": "521.0488154181359", "color": "#808080"}, {"source": "12198813467", "target": "12198813466", "highway": "unclassified", "length": "9.65012426762441", "color": "#808080"}, {"source": "12198813468", "target": "12198813465", "highway": "unclassified", "length": "10.529970321233318", "color": "#808080"}, {"source": "12198813468", "target": "12198813455", "highway": "unclassified", "length": "517.0939005387704", "color": "#808080"}, {"source": "12198813469", "target": "11971605188", "highway": "primary", "length": "129.68899496621358", "color": "#1e90ff"}, {"source": "12198813469", "target": "12198813486", "highway": "unclassified", "length": "10.666192925418915", "color": "#808080"}, {"source": "12198813484", "target": "12198813469", "highway": "primary", "length": "15.334845114402588", "color": "#1e90ff"}, {"source": "12198813485", "target": "12198813433", "highway": "primary", "length": "43.78723395851951", "color": "#1e90ff"}, {"source": "12198813485", "target": "12198813484", "highway": "unclassified", "length": "10.730770179673012", "color": "#808080"}, {"source": "12198813486", "target": "12198813485", "highway": "primary", "length": "15.353605842198721", "color": "#1e90ff"}, {"source": "12198813486", "target": "12198813493", "highway": "unclassified", "length": "736.9599451477014", "color": "#808080"}, {"source": "12198813487", "target": "10994506742", "highway": "residential", "length": "168.98340241095573", "color": "#ff69b4"}, {"source": "12198813487", "target": "12198813488", "highway": "residential", "length": "11.605726361815128", "color": "#ff69b4"}, {"source": "12198813487", "target": "12198813509", "highway": "unclassified", "length": "239.41710816605348", "color": "#808080"}, {"source": "12198813488", "target": "12198813487", "highway": "residential", "length": "11.605726361815128", "color": "#ff69b4"}, {"source": "12198813488", "target": "10994506725", "highway": "residential", "length": "486.73938565532876", "color": "#ff69b4"}, {"source": "12198813488", "target": "12198813522", "highway": "unclassified", "length": "365.0467652373377", "color": "#808080"}, {"source": "12198813489", "target": "12198813490", "highway": "unclassified", "length": "12.276480508628902", "color": "#808080"}, {"source": "12198813489", "target": "12198813531", "highway": "unclassified", "length": "272.976897653154", "color": "#808080"}, {"source": "12198813490", "target": "12198813492", "highway": "unclassified", "length": "7.618089519436038", "color": "#808080"}, {"source": "12198813490", "target": "12198813359", "highway": "unclassified", "length": "538.8874371888561", "color": "#808080"}, {"source": "12198813491", "target": "12198813489", "highway": "unclassified", "length": "7.630109286327032", "color": "#808080"}, {"source": "12198813491", "target": "12528946683", "highway": "unclassified", "length": "444.11607221324675", "color": "#808080"}, {"source": "12198813492", "target": "12198813491", "highway": "unclassified", "length": "12.430732309452381", "color": "#808080"}, {"source": "12198813492", "target": "12198813491", "highway": "unclassified", "length": "317.8222462218846", "color": "#808080"}, {"source": "12198813493", "target": "12198813508", "highway": "unclassified", "length": "9.22247669761289", "color": "#808080"}, {"source": "12198813498", "target": "12528946686", "highway": "unclassified", "length": "9.699065555848343", "color": "#808080"}, {"source": "12198813498", "target": "12528946687", "highway": "unclassified", "length": "158.7002085681355", "color": "#808080"}, {"source": "12198813500", "target": "12198813493", "highway": "unclassified", "length": "11.662779862243072", "color": "#808080"}, {"source": "12198813500", "target": "12198813485", "highway": "unclassified", "length": "749.9147669750897", "color": "#808080"}, {"source": "12198813501", "target": "12198813510", "highway": "unclassified", "length": "8.464242574827843", "color": "#808080"}, {"source": "12198813501", "target": "12198813498", "highway": "unclassified", "length": "383.81242625557974", "color": "#808080"}, {"source": "12198813502", "target": "12198813501", "highway": "unclassified", "length": "9.846086851568263", "color": "#808080"}, {"source": "12198813502", "target": "12198813378", "highway": "unclassified", "length": "805.4098492167738", "color": "#808080"}, {"source": "12198813508", "target": "12198813488", "highway": "unclassified", "length": "243.78542170780463", "color": "#808080"}, {"source": "12198813508", "target": "12198813509", "highway": "unclassified", "length": "11.674278374591424", "color": "#808080"}, {"source": "12198813509", "target": "12198813500", "highway": "unclassified", "length": "9.177860929029965", "color": "#808080"}, {"source": "12198813509", "target": "12528946689", "highway": "unclassified", "length": "221.09472468538488", "color": "#808080"}, {"source": "12198813510", "target": "12528946681", "highway": "unclassified", "length": "228.82108258125652", "color": "#808080"}, {"source": "12198813510", "target": "12198813511", "highway": "unclassified", "length": "9.829171862378201", "color": "#808080"}, {"source": "12198813511", "target": "12198813502", "highway": "unclassified", "length": "8.436450367086328", "color": "#808080"}, {"source": "12198813511", "target": "12198813502", "highway": "unclassified", "length": "317.05288544782456", "color": "#808080"}, {"source": "12198813512", "target": "12198813522", "highway": "unclassified", "length": "11.743193556353955", "color": "#808080"}, {"source": "12198813512", "target": "12198813487", "highway": "unclassified", "length": "370.65814172062056", "color": "#808080"}, {"source": "12198813521", "target": "12198813523", "highway": "unclassified", "length": "30.068754092717263", "color": "#808080"}, {"source": "12198813522", "target": "12198813532", "highway": "unclassified", "length": "12.485058671419251", "color": "#808080"}, {"source": "12198813522", "target": "12198813521", "highway": "unclassified", "length": "621.1961398318607", "color": "#808080"}, {"source": "12198813523", "target": "12198813532", "highway": "unclassified", "length": "622.2598391147076", "color": "#808080"}, {"source": "12198813523", "target": "12198813521", "highway": "unclassified", "length": "30.068754092717263", "color": "#808080"}, {"source": "12198813531", "target": "12198813512", "highway": "unclassified", "length": "13.602102281020738", "color": "#808080"}, {"source": "12198813532", "target": "12198813531", "highway": "unclassified", "length": "12.08602975451473", "color": "#808080"}, {"source": "12198813532", "target": "12198813490", "highway": "unclassified", "length": "279.3023021565387", "color": "#808080"}, {"source": "12198813549", "target": "12198813552", "highway": "unclassified", "length": "14.57104951885412", "color": "#808080"}, {"source": "12198813550", "target": "11971605184", "highway": "primary", "length": "12.265481020168265", "color": "#1e90ff"}, {"source": "12198813550", "target": "12198813590", "highway": "unclassified", "length": "1596.6639776066802", "color": "#808080"}, {"source": "12198813551", "target": "12198813550", "highway": "unclassified", "length": "10.116710186485353", "color": "#808080"}, {"source": "12198813551", "target": "11971605183", "highway": "primary", "length": "97.61015491854394", "color": "#1e90ff"}, {"source": "12198813552", "target": "12198813589", "highway": "unclassified", "length": "9.36886084223495", "color": "#808080"}, {"source": "12198813552", "target": "12528946644", "highway": "unclassified", "length": "209.5070009148555", "color": "#808080"}, {"source": "12198813574", "target": "12198813575", "highway": "unclassified", "length": "9.913789382967067", "color": "#808080"}, {"source": "12198813574", "target": "11971601965", "highway": "primary", "length": "871.0218275685896", "color": "#1e90ff"}, {"source": "12198813575", "target": "12198813577", "highway": "primary", "length": "9.13794956285591", "color": "#1e90ff"}, {"source": "12198813575", "target": "12528946647", "highway": "unclassified", "length": "251.6070735071496", "color": "#808080"}, {"source": "12198813577", "target": "12198813578", "highway": "unclassified", "length": "9.995662059767609", "color": "#808080"}, {"source": "12198813577", "target": "11971605180", "highway": "primary", "length": "154.96964911963434", "color": "#1e90ff"}, {"source": "12198813578", "target": "10994506564", "highway": "unclassified", "length": "1227.132697285065", "color": "#808080"}, {"source": "12198813578", "target": "12198813574", "highway": "primary", "length": "9.246185343830625", "color": "#1e90ff"}, {"source": "12198813589", "target": "12198813590", "highway": "unclassified", "length": "14.260784210807193", "color": "#808080"}, {"source": "12198813589", "target": "11971605184", "highway": "unclassified", "length": "1611.5804129382727", "color": "#808080"}, {"source": "12198813590", "target": "12198813549", "highway": "unclassified", "length": "9.342160569162845", "color": "#808080"}, {"source": "12198813590", "target": "12528946641", "highway": "unclassified", "length": "202.7673402232544", "color": "#808080"}, {"source": "12231648348", "target": "12603839960", "highway": "unclassified", "length": "1299.549490645075", "color": "#808080"}, {"source": "12231648349", "target": "12603804367", "highway": "unclassified", "length": "464.07841799071014", "color": "#808080"}, {"source": "12231648352", "target": "12231648396", "highway": "unclassified", "length": "2816.8152781319386", "color": "#808080"}, {"source": "12231648396", "target": "12603804143", "highway": "unclassified", "length": "9.675278467308768", "color": "#808080"}, {"source": "12231648396", "target": "12231648352", "highway": "unclassified", "length": "2816.8152781319386", "color": "#808080"}, {"source": "12231648396", "target": "12603804300", "highway": "primary", "length": "3188.872004728439", "color": "#1e90ff"}, {"source": "12231648424", "target": "12603804139", "highway": "unclassified", "length": "2955.3463502728414", "color": "#808080"}, {"source": "12231648554", "target": "5864929805", "highway": "tertiary", "length": "133.4383317433975", "color": "#32cd32"}, {"source": "12231648554", "target": "3643158729", "highway": "tertiary", "length": "3183.2148441811587", "color": "#32cd32"}, {"source": "12231648554", "target": "12231648563", "highway": "unclassified", "length": "1911.3164178884576", "color": "#808080"}, {"source": "12231648563", "target": "12768304655", "highway": "unclassified", "length": "1387.8933335778288", "color": "#808080"}, {"source": "12231648563", "target": "12231648554", "highway": "unclassified", "length": "1911.316417888458", "color": "#808080"}, {"source": "12231648563", "target": "12768304688", "highway": "unclassified", "length": "1522.6126610039414", "color": "#808080"}, {"source": "12231648563", "target": "12768311726", "highway": "unclassified", "length": "1077.9513719886045", "color": "#808080"}, {"source": "12231648585", "target": "5864929901", "highway": "unclassified", "length": "1885.9398627976684", "color": "#808080"}, {"source": "12279688757", "target": "5868899148", "highway": "tertiary", "length": "3932.170490418623", "color": "#32cd32"}, {"source": "12279688793", "target": "12528960609", "highway": "unclassified", "length": "9.502693553576714", "color": "#808080"}, {"source": "12279688793", "target": "10994506609", "highway": "unclassified", "length": "275.1102904640495", "color": "#808080"}, {"source": "12279688806", "target": "12528946695", "highway": "unclassified", "length": "12.776346538207939", "color": "#808080"}, {"source": "12279688806", "target": "12198813377", "highway": "unclassified", "length": "381.0622397449863", "color": "#808080"}, {"source": "12279688808", "target": "12528946687", "highway": "unclassified", "length": "8.34582042149425", "color": "#808080"}, {"source": "12279688808", "target": "12528946686", "highway": "unclassified", "length": "152.03581172359247", "color": "#808080"}, {"source": "12279688844", "target": "10994506610", "highway": "unclassified", "length": "210.85073013572975", "color": "#808080"}, {"source": "12279688844", "target": "12528946658", "highway": "unclassified", "length": "7.144956193768029", "color": "#808080"}, {"source": "12279688910", "target": "12528946656", "highway": "unclassified", "length": "8.620149651206551", "color": "#808080"}, {"source": "12279688910", "target": "10994506551", "highway": "unclassified", "length": "302.7331627252538", "color": "#808080"}, {"source": "12279688913", "target": "12528946657", "highway": "unclassified", "length": "7.9176224101635855", "color": "#808080"}, {"source": "12279688913", "target": "10994506574", "highway": "unclassified", "length": "207.04463625591504", "color": "#808080"}, {"source": "12400280892", "target": "12603804099", "highway": "tertiary", "length": "2096.2371846688225", "color": "#32cd32"}, {"source": "12412934739", "target": "3643159350", "highway": "tertiary", "length": "187.71792382866172", "color": "#32cd32"}, {"source": "12412934739", "target": "12413028988", "highway": "tertiary", "length": "398.5120622873697", "color": "#32cd32"}, {"source": "12412934739", "target": "12412934792", "highway": "unclassified", "length": "277.32043706886543", "color": "#808080"}, {"source": "12412934792", "target": "12413028988", "highway": "unclassified", "length": "363.14456328419436", "color": "#808080"}, {"source": "12412934792", "target": "12412961966", "highway": "unclassified", "length": "430.99512327933445", "color": "#808080"}, {"source": "12412934792", "target": "12412934739", "highway": "unclassified", "length": "277.32043706886543", "color": "#808080"}, {"source": "12412961966", "target": "3643159350", "highway": "tertiary", "length": "121.2078165126969", "color": "#32cd32"}, {"source": "12412961966", "target": "3643159626", "highway": "tertiary", "length": "2071.7283056104657", "color": "#32cd32"}, {"source": "12412961966", "target": "12412934792", "highway": "unclassified", "length": "430.9951232793344", "color": "#808080"}, {"source": "12413016919", "target": "12413022152", "highway": "unclassified", "length": "1294.6542863805462", "color": "#808080"}, {"source": "12413022152", "target": "12413028988", "highway": "tertiary", "length": "9.176707063908328", "color": "#32cd32"}, {"source": "12413022152", "target": "3643158729", "highway": "tertiary", "length": "1222.8777566382084", "color": "#32cd32"}, {"source": "12413022152", "target": "12413016919", "highway": "unclassified", "length": "1294.6542863805453", "color": "#808080"}, {"source": "12413028988", "target": "12413022152", "highway": "tertiary", "length": "9.176707063908328", "color": "#32cd32"}, {"source": "12413028988", "target": "12412934739", "highway": "tertiary", "length": "398.51206228736976", "color": "#32cd32"}, {"source": "12413028988", "target": "12412934792", "highway": "unclassified", "length": "363.1445632841945", "color": "#808080"}, {"source": "12528686702", "target": "11971605196", "highway": "primary", "length": "9.134148003284961", "color": "#1e90ff"}, {"source": "12528686702", "target": "12528686703", "highway": "primary", "length": "6.669374196834056", "color": "#1e90ff"}, {"source": "12528686703", "target": "510405590", "highway": "primary", "length": "13.415311513505323", "color": "#1e90ff"}, {"source": "12528686703", "target": "12528686788", "highway": "primary", "length": "1857.7163453064259", "color": "#1e90ff"}, {"source": "12528686788", "target": "12198813452", "highway": "tertiary", "length": "315.802377834178", "color": "#32cd32"}, {"source": "12528946639", "target": "12528946640", "highway": "unclassified", "length": "10.465496710145441", "color": "#808080"}, {"source": "12528946639", "target": "12528946648", "highway": "unclassified", "length": "375.38937463353835", "color": "#808080"}, {"source": "12528946640", "target": "12528946639", "highway": "unclassified", "length": "10.465496710145441", "color": "#808080"}, {"source": "12528946640", "target": "12528946642", "highway": "unclassified", "length": "318.02769097180015", "color": "#808080"}, {"source": "12528946641", "target": "12528946642", "highway": "unclassified", "length": "9.398906374097752", "color": "#808080"}, {"source": "12528946641", "target": "12528946639", "highway": "unclassified", "length": "318.2146193758389", "color": "#808080"}, {"source": "12528946642", "target": "12198813549", "highway": "unclassified", "length": "202.8387645376115", "color": "#808080"}, {"source": "12528946642", "target": "12528946641", "highway": "unclassified", "length": "9.398906374097752", "color": "#808080"}, {"source": "12528946643", "target": "12198813589", "highway": "unclassified", "length": "209.4637290111736", "color": "#808080"}, {"source": "12528946643", "target": "12528946644", "highway": "unclassified", "length": "9.561434936050405", "color": "#808080"}, {"source": "12528946644", "target": "12528946643", "highway": "unclassified", "length": "9.561434936050405", "color": "#808080"}, {"source": "12528946644", "target": "12528946646", "highway": "unclassified", "length": "463.32194895018347", "color": "#808080"}, {"source": "12528946645", "target": "12528946646", "highway": "unclassified", "length": "10.191878913304249", "color": "#808080"}, {"source": "12528946645", "target": "12528946643", "highway": "unclassified", "length": "463.6113519230477", "color": "#808080"}, {"source": "12528946646", "target": "12528946645", "highway": "unclassified", "length": "10.191878913304249", "color": "#808080"}, {"source": "12528946646", "target": "12528946645", "highway": "unclassified", "length": "92.9881275487416", "color": "#808080"}, {"source": "12528946647", "target": "12528946648", "highway": "unclassified", "length": "7.066238253959346", "color": "#808080"}, {"source": "12528946647", "target": "12528946640", "highway": "unclassified", "length": "374.9376675977794", "color": "#808080"}, {"source": "12528946648", "target": "12528946647", "highway": "unclassified", "length": "7.066238253959346", "color": "#808080"}, {"source": "12528946648", "target": "12198813577", "highway": "unclassified", "length": "250.86609048065597", "color": "#808080"}, {"source": "12528946656", "target": "12279688910", "highway": "unclassified", "length": "8.620149651206551", "color": "#808080"}, {"source": "12528946656", "target": "12279688913", "highway": "unclassified", "length": "273.72537702754374", "color": "#808080"}, {"source": "12528946657", "target": "12279688910", "highway": "unclassified", "length": "274.3856805565654", "color": "#808080"}, {"source": "12528946657", "target": "12279688913", "highway": "unclassified", "length": "7.9176224101635855", "color": "#808080"}, {"source": "12528946658", "target": "12279688844", "highway": "unclassified", "length": "7.144956193768029", "color": "#808080"}, {"source": "12528946680", "target": "12528946681", "highway": "unclassified", "length": "9.468878715423601", "color": "#808080"}, {"source": "12528946680", "target": "12198813511", "highway": "unclassified", "length": "228.71769109344416", "color": "#808080"}, {"source": "12528946681", "target": "12528946680", "highway": "unclassified", "length": "9.468878715423601", "color": "#808080"}, {"source": "12528946681", "target": "12528946682", "highway": "unclassified", "length": "229.59675367886646", "color": "#808080"}, {"source": "12528946682", "target": "12528946683", "highway": "unclassified", "length": "8.141150594183731", "color": "#808080"}, {"source": "12528946682", "target": "12198813489", "highway": "unclassified", "length": "437.8250186378433", "color": "#808080"}, {"source": "12528946683", "target": "12528946680", "highway": "unclassified", "length": "229.32671851133642", "color": "#808080"}, {"source": "12528946683", "target": "12528946682", "highway": "unclassified", "length": "8.141150594183731", "color": "#808080"}, {"source": "12528946686", "target": "12198813498", "highway": "unclassified", "length": "9.699065555848343", "color": "#808080"}, {"source": "12528946686", "target": "12198813510", "highway": "unclassified", "length": "384.2721912294721", "color": "#808080"}, {"source": "12528946687", "target": "12528946688", "highway": "unclassified", "length": "14.39348752050821", "color": "#808080"}, {"source": "12528946688", "target": "12198813500", "highway": "unclassified", "length": "221.19124977295834", "color": "#808080"}, {"source": "12528946688", "target": "12528946689", "highway": "unclassified", "length": "8.389810184876325", "color": "#808080"}, {"source": "12528946689", "target": "12279688808", "highway": "unclassified", "length": "14.496227965664895", "color": "#808080"}, {"source": "12528946695", "target": "12279688806", "highway": "unclassified", "length": "12.776346538207939", "color": "#808080"}, {"source": "12528946695", "target": "12528946696", "highway": "unclassified", "length": "78.9866225563378", "color": "#808080"}, {"source": "12528946696", "target": "12528946698", "highway": "unclassified", "length": "511.59382754844745", "color": "#808080"}, {"source": "12528946696", "target": "12528946697", "highway": "unclassified", "length": "12.136251056292402", "color": "#808080"}, {"source": "12528946697", "target": "12528946696", "highway": "unclassified", "length": "12.136251056292402", "color": "#808080"}, {"source": "12528946697", "target": "12279688806", "highway": "unclassified", "length": "78.14352146741632", "color": "#808080"}, {"source": "12528946698", "target": "12528946700", "highway": "unclassified", "length": "11.153032306713813", "color": "#808080"}, {"source": "12528946699", "target": "12528946698", "highway": "unclassified", "length": "10.818178329693492", "color": "#808080"}, {"source": "12528946699", "target": "12528946697", "highway": "unclassified", "length": "511.8984788362634", "color": "#808080"}, {"source": "12528946700", "target": "12528960501", "highway": "unclassified", "length": "10.607624896789513", "color": "#808080"}, {"source": "12528946700", "target": "12198813415", "highway": "unclassified", "length": "227.5345546263905", "color": "#808080"}, {"source": "12528960501", "target": "12528946699", "highway": "unclassified", "length": "10.68099196800681", "color": "#808080"}, {"source": "12528960503", "target": "12198813374", "highway": "unclassified", "length": "152.94053243407004", "color": "#808080"}, {"source": "12528960503", "target": "12528960504", "highway": "unclassified", "length": "7.932477669643723", "color": "#808080"}, {"source": "12528960503", "target": "10994506609", "highway": "unclassified", "length": "161.07495155525547", "color": "#808080"}, {"source": "12528960504", "target": "12528960503", "highway": "unclassified", "length": "7.932477669643723", "color": "#808080"}, {"source": "12528960504", "target": "12198813375", "highway": "unclassified", "length": "122.16019676635605", "color": "#808080"}, {"source": "12528960609", "target": "12279688793", "highway": "unclassified", "length": "9.502693553576714", "color": "#808080"}, {"source": "12528960609", "target": "10994506620", "highway": "unclassified", "length": "608.7268227369995", "color": "#808080"}, {"source": "12528960614", "target": "10994506554", "highway": "unclassified", "length": "64.62955693718675", "color": "#808080"}, {"source": "12528960614", "target": "12198813373", "highway": "unclassified", "length": "231.24670975520945", "color": "#808080"}, {"source": "12535801371", "target": "11971367880", "highway": "primary", "length": "26.100626646141922", "color": "#1e90ff"}, {"source": "12535801371", "target": "3643887410", "highway": "primary", "length": "23.891130904864312", "color": "#1e90ff"}, {"source": "12535801371", "target": "12535801380", "highway": "tertiary", "length": "3011.0092247379494", "color": "#32cd32"}, {"source": "12535801380", "target": "12535801394", "highway": "tertiary", "length": "25.748985275318343", "color": "#32cd32"}, {"source": "12535801380", "target": "3643887379", "highway": "tertiary", "length": "428.129414248788", "color": "#32cd32"}, {"source": "12535801380", "target": "12535801371", "highway": "tertiary", "length": "3011.0092247379494", "color": "#32cd32"}, {"source": "12535801380", "target": "3643215137", "highway": "tertiary", "length": "2528.4511126454213", "color": "#32cd32"}, {"source": "12535801394", "target": "3643887277", "highway": "tertiary", "length": "486.59250283937445", "color": "#32cd32"}, {"source": "12535801394", "target": "12535801380", "highway": "tertiary", "length": "25.748985275318343", "color": "#32cd32"}, {"source": "12535801394", "target": "3643887410", "highway": "tertiary", "length": "3030.616027366581", "color": "#32cd32"}, {"source": "12535801394", "target": "3643215131", "highway": "tertiary", "length": "2538.9978391998525", "color": "#32cd32"}, {"source": "12539042814", "target": "12539042815", "highway": "residential", "length": "30.358309334854752", "color": "#ff69b4"}, {"source": "12539042814", "target": "12539042849", "highway": "residential", "length": "9.56178631879338", "color": "#ff69b4"}, {"source": "12539042814", "target": "12539042844", "highway": "residential", "length": "60.7445836239479", "color": "#ff69b4"}, {"source": "12539042815", "target": "12539042845", "highway": "residential", "length": "4.780260883426685", "color": "#ff69b4"}, {"source": "12539042815", "target": "12539042814", "highway": "residential", "length": "30.358309334854752", "color": "#ff69b4"}, {"source": "12539042815", "target": "12539042843", "highway": "residential", "length": "81.0992967708439", "color": "#ff69b4"}, {"source": "12539042816", "target": "12539042820", "highway": "residential", "length": "25.631280227799394", "color": "#ff69b4"}, {"source": "12539042816", "target": "12539042845", "highway": "residential", "length": "21.39286833633776", "color": "#ff69b4"}, {"source": "12539042816", "target": "12539042834", "highway": "residential", "length": "121.33846355020893", "color": "#ff69b4"}, {"source": "12539042816", "target": "12539042842", "highway": "residential", "length": "106.06040115590585", "color": "#ff69b4"}, {"source": "12539042817", "target": "12539042818", "highway": "residential", "length": "24.594037654338887", "color": "#ff69b4"}, {"source": "12539042817", "target": "12539042820", "highway": "residential", "length": "24.12643847037016", "color": "#ff69b4"}, {"source": "12539042817", "target": "12539042826", "highway": "residential", "length": "111.73613541194226", "color": "#ff69b4"}, {"source": "12539042817", "target": "12539042837", "highway": "residential", "length": "95.52727371346369", "color": "#ff69b4"}, {"source": "12539042818", "target": "12539042819", "highway": "residential", "length": "21.869654938258265", "color": "#ff69b4"}, {"source": "12539042818", "target": "12539042817", "highway": "residential", "length": "24.594037654338887", "color": "#ff69b4"}, {"source": "12539042818", "target": "12539042822", "highway": "residential", "length": "105.42293900727117", "color": "#ff69b4"}, {"source": "12539042818", "target": "12539042824", "highway": "residential", "length": "92.96136170307508", "color": "#ff69b4"}, {"source": "12539042819", "target": "12539042818", "highway": "residential", "length": "21.869654938258265", "color": "#ff69b4"}, {"source": "12539042820", "target": "12539042817", "highway": "residential", "length": "24.12643847037016", "color": "#ff69b4"}, {"source": "12539042820", "target": "12539042816", "highway": "residential", "length": "25.631280227799394", "color": "#ff69b4"}, {"source": "12539042820", "target": "12539042854", "highway": "residential", "length": "116.9359606951174", "color": "#ff69b4"}, {"source": "12539042820", "target": "12539042840", "highway": "residential", "length": "97.98455202040805", "color": "#ff69b4"}, {"source": "12539042822", "target": "12539042826", "highway": "unclassified", "length": "22.102615584778473", "color": "#808080"}, {"source": "12539042822", "target": "12539042818", "highway": "residential", "length": "105.42293900727117", "color": "#ff69b4"}, {"source": "12539042822", "target": "12539042863", "highway": "unclassified", "length": "507.5441172398833", "color": "#808080"}, {"source": "12539042824", "target": "12539042818", "highway": "residential", "length": "92.96136170307508", "color": "#ff69b4"}, {"source": "12539042826", "target": "12539042822", "highway": "unclassified", "length": "22.102615584778473", "color": "#808080"}, {"source": "12539042826", "target": "12539042854", "highway": "unclassified", "length": "23.436529435892428", "color": "#808080"}, {"source": "12539042826", "target": "12539042817", "highway": "residential", "length": "111.73613541194226", "color": "#ff69b4"}, {"source": "12539042830", "target": "12539042854", "highway": "residential", "length": "106.53398812762225", "color": "#ff69b4"}, {"source": "12539042834", "target": "12539042854", "highway": "unclassified", "length": "27.72837323117207", "color": "#808080"}, {"source": "12539042834", "target": "12539042848", "highway": "unclassified", "length": "20.077406665273674", "color": "#808080"}, {"source": "12539042834", "target": "12539042816", "highway": "residential", "length": "121.33846355020893", "color": "#ff69b4"}, {"source": "12539042837", "target": "12539042817", "highway": "residential", "length": "95.52727371346367", "color": "#ff69b4"}, {"source": "12539042840", "target": "12539042820", "highway": "residential", "length": "97.98455202040806", "color": "#ff69b4"}, {"source": "12539042842", "target": "12539042816", "highway": "residential", "length": "106.06040115590585", "color": "#ff69b4"}, {"source": "12539042843", "target": "12539042815", "highway": "residential", "length": "81.0992967708439", "color": "#ff69b4"}, {"source": "12539042844", "target": "12539042814", "highway": "residential", "length": "60.7445836239479", "color": "#ff69b4"}, {"source": "12539042845", "target": "12539042816", "highway": "residential", "length": "21.39286833633776", "color": "#ff69b4"}, {"source": "12539042845", "target": "12539042815", "highway": "residential", "length": "4.780260883426685", "color": "#ff69b4"}, {"source": "12539042845", "target": "12539042848", "highway": "residential", "length": "128.70200111041876", "color": "#ff69b4"}, {"source": "12539042848", "target": "12539042834", "highway": "unclassified", "length": "20.077406665273674", "color": "#808080"}, {"source": "12539042848", "target": "12539042845", "highway": "residential", "length": "128.70200111041876", "color": "#ff69b4"}, {"source": "12539042848", "target": "12539042866", "highway": "unclassified", "length": "97.18095417033193", "color": "#808080"}, {"source": "12539042848", "target": "12539042849", "highway": "residential", "length": "166.29693226791116", "color": "#ff69b4"}, {"source": "12539042849", "target": "12539042814", "highway": "residential", "length": "9.56178631879338", "color": "#ff69b4"}, {"source": "12539042849", "target": "3643887379", "highway": "residential", "length": "122.59239916536197", "color": "#ff69b4"}, {"source": "12539042849", "target": "12539042848", "highway": "residential", "length": "166.29693226791116", "color": "#ff69b4"}, {"source": "12539042854", "target": "12539042826", "highway": "unclassified", "length": "23.436529435892428", "color": "#808080"}, {"source": "12539042854", "target": "12539042834", "highway": "unclassified", "length": "27.72837323117207", "color": "#808080"}, {"source": "12539042854", "target": "12539042830", "highway": "residential", "length": "106.53398812762225", "color": "#ff69b4"}, {"source": "12539042854", "target": "12539042820", "highway": "residential", "length": "116.9359606951174", "color": "#ff69b4"}, {"source": "12539042863", "target": "12539042822", "highway": "unclassified", "length": "507.5441172398833", "color": "#808080"}, {"source": "12539042866", "target": "3643887379", "highway": "tertiary", "length": "239.59147995450874", "color": "#32cd32"}, {"source": "12539042866", "target": "4546169366", "highway": "tertiary", "length": "1853.8814945265856", "color": "#32cd32"}, {"source": "12539042866", "target": "12539042848", "highway": "unclassified", "length": "97.18095417033192", "color": "#808080"}, {"source": "12540965544", "target": "3643887268", "highway": "tertiary", "length": "68.37092824942506", "color": "#32cd32"}, {"source": "12540965544", "target": "3643887277", "highway": "tertiary", "length": "1723.5756625597446", "color": "#32cd32"}, {"source": "12540965544", "target": "12540965559", "highway": "residential", "length": "188.10080190609492", "color": "#ff69b4"}, {"source": "12540965551", "target": "12540969217", "highway": "residential", "length": "59.13652952563326", "color": "#ff69b4"}, {"source": "12540965551", "target": "12556117095", "highway": "residential", "length": "107.534841628756", "color": "#ff69b4"}, {"source": "12540965551", "target": "12540965581", "highway": "residential", "length": "87.17188533272216", "color": "#ff69b4"}, {"source": "12540965553", "target": "12540969235", "highway": "residential", "length": "27.887841876805073", "color": "#ff69b4"}, {"source": "12540965553", "target": "12540965555", "highway": "residential", "length": "112.3065168260629", "color": "#ff69b4"}, {"source": "12540965553", "target": "12540969222", "highway": "residential", "length": "68.92367575406438", "color": "#ff69b4"}, {"source": "12540965555", "target": "12540965553", "highway": "residential", "length": "112.3065168260629", "color": "#ff69b4"}, {"source": "12540965559", "target": "12556117095", "highway": "residential", "length": "28.503131231298443", "color": "#ff69b4"}, {"source": "12540965559", "target": "12540965544", "highway": "residential", "length": "188.10080190609492", "color": "#ff69b4"}, {"source": "12540965559", "target": "12540965562", "highway": "residential", "length": "89.62280074650909", "color": "#ff69b4"}, {"source": "12540965559", "target": "12556117087", "highway": "residential", "length": "50.501482707719234", "color": "#ff69b4"}, {"source": "12540965562", "target": "12540965576", "highway": "residential", "length": "43.43504778883412", "color": "#ff69b4"}, {"source": "12540965562", "target": "12540965569", "highway": "residential", "length": "396.56857387212585", "color": "#ff69b4"}, {"source": "12540965562", "target": "12540965559", "highway": "residential", "length": "89.62280074650909", "color": "#ff69b4"}, {"source": "12540965569", "target": "12540965562", "highway": "residential", "length": "396.56857387212585", "color": "#ff69b4"}, {"source": "12540965575", "target": "12540969230", "highway": "residential", "length": "40.952246309456925", "color": "#ff69b4"}, {"source": "12540965576", "target": "12540965562", "highway": "residential", "length": "43.43504778883412", "color": "#ff69b4"}, {"source": "12540965576", "target": "12540965577", "highway": "residential", "length": "42.657540309077106", "color": "#ff69b4"}, {"source": "12540965576", "target": "12540965578", "highway": "residential", "length": "28.511400785926163", "color": "#ff69b4"}, {"source": "12540965577", "target": "12540965576", "highway": "residential", "length": "42.657540309077106", "color": "#ff69b4"}, {"source": "12540965578", "target": "12540965581", "highway": "residential", "length": "27.471126105882362", "color": "#ff69b4"}, {"source": "12540965578", "target": "12540965579", "highway": "residential", "length": "38.01477467783069", "color": "#ff69b4"}, {"source": "12540965578", "target": "12540965576", "highway": "residential", "length": "28.511400785926163", "color": "#ff69b4"}, {"source": "12540965579", "target": "12540965578", "highway": "residential", "length": "38.01477467783069", "color": "#ff69b4"}, {"source": "12540965581", "target": "12540965578", "highway": "residential", "length": "27.471126105882362", "color": "#ff69b4"}, {"source": "12540965581", "target": "12540965582", "highway": "residential", "length": "59.155015013421156", "color": "#ff69b4"}, {"source": "12540965581", "target": "12540969213", "highway": "residential", "length": "26.59948306652806", "color": "#ff69b4"}, {"source": "12540965581", "target": "12540965551", "highway": "residential", "length": "87.17188533272216", "color": "#ff69b4"}, {"source": "12540965582", "target": "12540965581", "highway": "residential", "length": "59.155015013421156", "color": "#ff69b4"}, {"source": "12540969212", "target": "12540969213", "highway": "residential", "length": "49.45463134625605", "color": "#ff69b4"}, {"source": "12540969213", "target": "12540969216", "highway": "residential", "length": "27.48097934151116", "color": "#ff69b4"}, {"source": "12540969213", "target": "12540969214", "highway": "residential", "length": "65.69038021706812", "color": "#ff69b4"}, {"source": "12540969213", "target": "12540969212", "highway": "residential", "length": "49.45463134625605", "color": "#ff69b4"}, {"source": "12540969213", "target": "12540965581", "highway": "residential", "length": "26.59948306652806", "color": "#ff69b4"}, {"source": "12540969214", "target": "12540969213", "highway": "residential", "length": "65.69038021706812", "color": "#ff69b4"}, {"source": "12540969215", "target": "12540969216", "highway": "residential", "length": "58.78765083106031", "color": "#ff69b4"}, {"source": "12540969216", "target": "12540969213", "highway": "residential", "length": "27.48097934151116", "color": "#ff69b4"}, {"source": "12540969216", "target": "12540969217", "highway": "residential", "length": "102.52498417393635", "color": "#ff69b4"}, {"source": "12540969216", "target": "12540969215", "highway": "residential", "length": "58.78765083106031", "color": "#ff69b4"}, {"source": "12540969216", "target": "12540969219", "highway": "residential", "length": "29.841242961358336", "color": "#ff69b4"}, {"source": "12540969217", "target": "12540965551", "highway": "residential", "length": "59.13652952563326", "color": "#ff69b4"}, {"source": "12540969217", "target": "12540969216", "highway": "residential", "length": "102.52498417393635", "color": "#ff69b4"}, {"source": "12540969217", "target": "12540969235", "highway": "residential", "length": "61.21347781752611", "color": "#ff69b4"}, {"source": "12540969218", "target": "12540969219", "highway": "residential", "length": "43.48944556933918", "color": "#ff69b4"}, {"source": "12540969219", "target": "12540969224", "highway": "residential", "length": "30.787345853286045", "color": "#ff69b4"}, {"source": "12540969219", "target": "12540969218", "highway": "residential", "length": "43.48944556933918", "color": "#ff69b4"}, {"source": "12540969219", "target": "12540969216", "highway": "residential", "length": "29.841242961358336", "color": "#ff69b4"}, {"source": "12540969219", "target": "12540969234", "highway": "residential", "length": "90.80694256179488", "color": "#ff69b4"}, {"source": "12540969222", "target": "12540969223", "highway": "residential", "length": "21.263251260608236", "color": "#ff69b4"}, {"source": "12540969222", "target": "12540969234", "highway": "residential", "length": "30.2158955869678", "color": "#ff69b4"}, {"source": "12540969222", "target": "12540965553", "highway": "residential", "length": "68.92367575406436", "color": "#ff69b4"}, {"source": "12540969222", "target": "12540969230", "highway": "residential", "length": "55.24255930356715", "color": "#ff69b4"}, {"source": "12540969223", "target": "12540969222", "highway": "residential", "length": "21.263251260608236", "color": "#ff69b4"}, {"source": "12540969224", "target": "12540969219", "highway": "residential", "length": "30.787345853286045", "color": "#ff69b4"}, {"source": "12540969224", "target": "12540969230", "highway": "residential", "length": "44.67511463826635", "color": "#ff69b4"}, {"source": "12540969224", "target": "12540969226", "highway": "residential", "length": "48.223120864540874", "color": "#ff69b4"}, {"source": "12540969226", "target": "12540969224", "highway": "residential", "length": "48.223120864540874", "color": "#ff69b4"}, {"source": "12540969227", "target": "12540969228", "highway": "residential", "length": "29.768241983618324", "color": "#ff69b4"}, {"source": "12540969228", "target": "12540969229", "highway": "residential", "length": "30.174148839214208", "color": "#ff69b4"}, {"source": "12540969228", "target": "12540969227", "highway": "residential", "length": "29.768241983618324", "color": "#ff69b4"}, {"source": "12540969228", "target": "12540969230", "highway": "residential", "length": "27.478792545036114", "color": "#ff69b4"}, {"source": "12540969229", "target": "12540969228", "highway": "residential", "length": "30.174148839214208", "color": "#ff69b4"}, {"source": "12540969230", "target": "12540969228", "highway": "residential", "length": "27.478792545036114", "color": "#ff69b4"}, {"source": "12540969230", "target": "12540965575", "highway": "residential", "length": "40.952246309456925", "color": "#ff69b4"}, {"source": "12540969230", "target": "12540969224", "highway": "residential", "length": "44.67511463826635", "color": "#ff69b4"}, {"source": "12540969230", "target": "12540969222", "highway": "residential", "length": "55.24255930356715", "color": "#ff69b4"}, {"source": "12540969234", "target": "12540969222", "highway": "residential", "length": "30.2158955869678", "color": "#ff69b4"}, {"source": "12540969234", "target": "12540969235", "highway": "residential", "length": "64.56838433790121", "color": "#ff69b4"}, {"source": "12540969234", "target": "12540969219", "highway": "residential", "length": "90.8069425617949", "color": "#ff69b4"}, {"source": "12540969235", "target": "12540965553", "highway": "residential", "length": "27.887841876805073", "color": "#ff69b4"}, {"source": "12540969235", "target": "12540969234", "highway": "residential", "length": "64.56838433790121", "color": "#ff69b4"}, {"source": "12540969235", "target": "12540969217", "highway": "residential", "length": "61.21347781752611", "color": "#ff69b4"}, {"source": "12541054592", "target": "12541054593", "highway": "tertiary", "length": "10.964492458612522", "color": "#32cd32"}, {"source": "12541054592", "target": "3643215131", "highway": "tertiary", "length": "4526.473512399464", "color": "#32cd32"}, {"source": "12541054592", "target": "12603804057", "highway": "primary", "length": "1598.3583925188184", "color": "#1e90ff"}, {"source": "12541054593", "target": "12541054592", "highway": "tertiary", "length": "10.964492458612522", "color": "#32cd32"}, {"source": "12541054593", "target": "12541087023", "highway": "tertiary", "length": "3314.0651944110127", "color": "#32cd32"}, {"source": "12541054593", "target": "12603767538", "highway": "primary", "length": "19.61421722371693", "color": "#1e90ff"}, {"source": "12541072341", "target": "12541072342", "highway": "residential", "length": "69.06974641308481", "color": "#ff69b4"}, {"source": "12541072342", "target": "12039323727", "highway": "residential", "length": "36.58385363051977", "color": "#ff69b4"}, {"source": "12541072342", "target": "12039323726", "highway": "residential", "length": "39.951454401252015", "color": "#ff69b4"}, {"source": "12541072342", "target": "12541072341", "highway": "residential", "length": "69.06974641308481", "color": "#ff69b4"}, {"source": "12541072342", "target": "12541072344", "highway": "residential", "length": "84.37531596158757", "color": "#ff69b4"}, {"source": "12541072344", "target": "12039323725", "highway": "residential", "length": "36.22399821140721", "color": "#ff69b4"}, {"source": "12541072344", "target": "12039323724", "highway": "residential", "length": "40.28265084644448", "color": "#ff69b4"}, {"source": "12541072344", "target": "12541072342", "highway": "residential", "length": "84.37531596158757", "color": "#ff69b4"}, {"source": "12541087023", "target": "12603767538", "highway": "tertiary", "length": "3367.2835477467756", "color": "#32cd32"}, {"source": "12541087023", "target": "12541087025", "highway": "tertiary", "length": "48.39775135442458", "color": "#32cd32"}, {"source": "12541087023", "target": "12541054593", "highway": "tertiary", "length": "3314.065194411013", "color": "#32cd32"}, {"source": "12541087025", "target": "2373910506", "highway": "tertiary", "length": "1285.5146106009843", "color": "#32cd32"}, {"source": "12541087025", "target": "12541087023", "highway": "tertiary", "length": "48.39775135442458", "color": "#32cd32"}, {"source": "12541087025", "target": "12541087070", "highway": "tertiary", "length": "1257.6737080321866", "color": "#32cd32"}, {"source": "12541087041", "target": "12039383619", "highway": "tertiary", "length": "23.48763132980898", "color": "#32cd32"}, {"source": "12541087041", "target": "12541087059", "highway": "tertiary", "length": "3515.059778759433", "color": "#32cd32"}, {"source": "12541087059", "target": "5868899167", "highway": "tertiary", "length": "4839.444639381024", "color": "#32cd32"}, {"source": "12541087059", "target": "12039383632", "highway": "tertiary", "length": "17.879517567546564", "color": "#32cd32"}, {"source": "12541087059", "target": "12541087041", "highway": "tertiary", "length": "3515.059778759432", "color": "#32cd32"}, {"source": "12541087059", "target": "12541087060", "highway": "tertiary", "length": "633.9989464765159", "color": "#32cd32"}, {"source": "12541087060", "target": "12039383635", "highway": "tertiary", "length": "23.694675819375792", "color": "#32cd32"}, {"source": "12541087060", "target": "11602174988", "highway": "tertiary", "length": "3100.8444038819794", "color": "#32cd32"}, {"source": "12541087060", "target": "12541087070", "highway": "tertiary", "length": "3308.1385965476784", "color": "#32cd32"}, {"source": "12541087060", "target": "12541087059", "highway": "tertiary", "length": "633.9989464765159", "color": "#32cd32"}, {"source": "12541087070", "target": "12603767555", "highway": "primary", "length": "3280.3663055879406", "color": "#1e90ff"}, {"source": "12541087070", "target": "2373910506", "highway": "primary", "length": "38.19455994952253", "color": "#1e90ff"}, {"source": "12541087070", "target": "12541087060", "highway": "tertiary", "length": "3308.1385965476784", "color": "#32cd32"}, {"source": "12541087070", "target": "12541087025", "highway": "tertiary", "length": "1257.6737080321866", "color": "#32cd32"}, {"source": "12543587205", "target": "12543614774", "highway": "residential", "length": "40.18674643354768", "color": "#ff69b4"}, {"source": "12543614749", "target": "12543640713", "highway": "tertiary", "length": "49.341954488056096", "color": "#32cd32"}, {"source": "12543614749", "target": "12543640752", "highway": "tertiary", "length": "78.01338986155424", "color": "#32cd32"}, {"source": "12543614749", "target": "9845666855", "highway": "residential", "length": "119.65741331044023", "color": "#ff69b4"}, {"source": "12543614751", "target": "4546169366", "highway": "tertiary", "length": "519.7358098631738", "color": "#32cd32"}, {"source": "12543614751", "target": "12543614774", "highway": "tertiary", "length": "561.693894893696", "color": "#32cd32"}, {"source": "12543614751", "target": "12543614760", "highway": "tertiary", "length": "282.88449823732014", "color": "#32cd32"}, {"source": "12543614760", "target": "11971384676", "highway": "primary", "length": "262.02775810862187", "color": "#1e90ff"}, {"source": "12543614760", "target": "12543614751", "highway": "tertiary", "length": "282.88449823732014", "color": "#32cd32"}, {"source": "12543614774", "target": "12543614775", "highway": "residential", "length": "29.041484144232566", "color": "#ff69b4"}, {"source": "12543614774", "target": "12543614751", "highway": "tertiary", "length": "561.6938948936961", "color": "#32cd32"}, {"source": "12543614774", "target": "12543587205", "highway": "residential", "length": "40.18674643354768", "color": "#ff69b4"}, {"source": "12543614775", "target": "12543614774", "highway": "residential", "length": "29.041484144232566", "color": "#ff69b4"}, {"source": "12543614775", "target": "12543614777", "highway": "residential", "length": "53.50992047001589", "color": "#ff69b4"}, {"source": "12543614775", "target": "12543614777", "highway": "residential", "length": "130.64438777644648", "color": "#ff69b4"}, {"source": "12543614775", "target": "12543614777", "highway": "residential", "length": "112.76918943032409", "color": "#ff69b4"}, {"source": "12543614777", "target": "12543614778", "highway": "residential", "length": "29.57539985289289", "color": "#ff69b4"}, {"source": "12543614777", "target": "12543614775", "highway": "residential", "length": "53.50992047001589", "color": "#ff69b4"}, {"source": "12543614777", "target": "12543614775", "highway": "residential", "length": "130.64438777644648", "color": "#ff69b4"}, {"source": "12543614777", "target": "12543614775", "highway": "residential", "length": "112.76918943032408", "color": "#ff69b4"}, {"source": "12543614778", "target": "12543614777", "highway": "residential", "length": "29.57539985289289", "color": "#ff69b4"}, {"source": "12543640708", "target": "11971384675", "highway": "primary", "length": "58.52076742315658", "color": "#1e90ff"}, {"source": "12543640708", "target": "12543649138", "highway": "residential", "length": "70.64295168373965", "color": "#ff69b4"}, {"source": "12543640713", "target": "12543614749", "highway": "tertiary", "length": "49.341954488056096", "color": "#32cd32"}, {"source": "12543640713", "target": "11971367917", "highway": "tertiary", "length": "70.45692950942417", "color": "#32cd32"}, {"source": "12543640713", "target": "12543649148", "highway": "residential", "length": "136.1360688214108", "color": "#ff69b4"}, {"source": "12543640714", "target": "12543640746", "highway": "residential", "length": "1478.3742979088904", "color": "#ff69b4"}, {"source": "12543640746", "target": "12543649136", "highway": "residential", "length": "69.02033138373004", "color": "#ff69b4"}, {"source": "12543640746", "target": "12543649135", "highway": "residential", "length": "34.704470479758584", "color": "#ff69b4"}, {"source": "12543640746", "target": "12543640748", "highway": "residential", "length": "53.802924459696776", "color": "#ff69b4"}, {"source": "12543640746", "target": "12543640714", "highway": "residential", "length": "1478.3742979088897", "color": "#ff69b4"}, {"source": "12543640748", "target": "12543640749", "highway": "residential", "length": "60.245954027602224", "color": "#ff69b4"}, {"source": "12543640748", "target": "12543640746", "highway": "residential", "length": "53.802924459696776", "color": "#ff69b4"}, {"source": "12543640748", "target": "12543640769", "highway": "residential", "length": "40.430182439457454", "color": "#ff69b4"}, {"source": "12543640748", "target": "12543649148", "highway": "residential", "length": "141.96649325278693", "color": "#ff69b4"}, {"source": "12543640749", "target": "12543640748", "highway": "residential", "length": "60.245954027602224", "color": "#ff69b4"}, {"source": "12543640749", "target": "12543640752", "highway": "residential", "length": "63.95153383998387", "color": "#ff69b4"}, {"source": "12543640749", "target": "12543640763", "highway": "residential", "length": "67.92872740821336", "color": "#ff69b4"}, {"source": "12543640752", "target": "12543640749", "highway": "residential", "length": "63.95153383998387", "color": "#ff69b4"}, {"source": "12543640752", "target": "12543614749", "highway": "tertiary", "length": "78.01338986155424", "color": "#32cd32"}, {"source": "12543640752", "target": "12543640757", "highway": "tertiary", "length": "106.65268152643569", "color": "#32cd32"}, {"source": "12543640753", "target": "12543640757", "highway": "tertiary", "length": "140.23223419555327", "color": "#32cd32"}, {"source": "12543640753", "target": "12543640790", "highway": "tertiary", "length": "3107.138596407503", "color": "#32cd32"}, {"source": "12543640753", "target": "12543649133", "highway": "residential", "length": "90.67325730671647", "color": "#ff69b4"}, {"source": "12543640757", "target": "12543640752", "highway": "tertiary", "length": "106.65268152643569", "color": "#32cd32"}, {"source": "12543640757", "target": "12543640753", "highway": "tertiary", "length": "140.23223419555327", "color": "#32cd32"}, {"source": "12543640757", "target": "12543649133", "highway": "residential", "length": "96.68487272863106", "color": "#ff69b4"}, {"source": "12543640763", "target": "12543640749", "highway": "residential", "length": "67.92872740821336", "color": "#ff69b4"}, {"source": "12543640769", "target": "12543640748", "highway": "residential", "length": "40.430182439457454", "color": "#ff69b4"}, {"source": "12543640775", "target": "12543684529", "highway": "tertiary", "length": "1572.706327838667", "color": "#32cd32"}, {"source": "12543640775", "target": "12543684548", "highway": "tertiary", "length": "291.4653525041525", "color": "#32cd32"}, {"source": "12543640775", "target": "12543640779", "highway": "residential", "length": "231.25375684654955", "color": "#ff69b4"}, {"source": "12543640779", "target": "12543640781", "highway": "residential", "length": "45.30116319566566", "color": "#ff69b4"}, {"source": "12543640779", "target": "12543640775", "highway": "residential", "length": "231.25375684654955", "color": "#ff69b4"}, {"source": "12543640779", "target": "12638012506", "highway": "residential", "length": "50.065530307130494", "color": "#ff69b4"}, {"source": "12543640779", "target": "12638005882", "highway": "residential", "length": "100.85577831173428", "color": "#ff69b4"}, {"source": "12543640781", "target": "12543640782", "highway": "residential", "length": "30.636832929779583", "color": "#ff69b4"}, {"source": "12543640781", "target": "12638005877", "highway": "residential", "length": "96.01872592804197", "color": "#ff69b4"}, {"source": "12543640781", "target": "12638005876", "highway": "residential", "length": "82.6050952921817", "color": "#ff69b4"}, {"source": "12543640781", "target": "12543640779", "highway": "residential", "length": "45.30116319566566", "color": "#ff69b4"}, {"source": "12543640782", "target": "12543640783", "highway": "residential", "length": "27.1829552360705", "color": "#ff69b4"}, {"source": "12543640782", "target": "12543640781", "highway": "residential", "length": "30.636832929779583", "color": "#ff69b4"}, {"source": "12543640782", "target": "12638005871", "highway": "residential", "length": "80.10668943649522", "color": "#ff69b4"}, {"source": "12543640782", "target": "12638005874", "highway": "residential", "length": "91.03416976950876", "color": "#ff69b4"}, {"source": "12543640783", "target": "12543640784", "highway": "residential", "length": "27.928404917057073", "color": "#ff69b4"}, {"source": "12543640783", "target": "12543640782", "highway": "residential", "length": "27.1829552360705", "color": "#ff69b4"}, {"source": "12543640783", "target": "12638005880", "highway": "residential", "length": "89.2123674952626", "color": "#ff69b4"}, {"source": "12543640783", "target": "12638005879", "highway": "residential", "length": "55.41992335951613", "color": "#ff69b4"}, {"source": "12543640784", "target": "12543640783", "highway": "residential", "length": "27.928404917057073", "color": "#ff69b4"}, {"source": "12543640784", "target": "12638005885", "highway": "residential", "length": "88.92211589323563", "color": "#ff69b4"}, {"source": "12543640784", "target": "12543640790", "highway": "residential", "length": "342.1506558623594", "color": "#ff69b4"}, {"source": "12543640790", "target": "12543640753", "highway": "tertiary", "length": "3107.138596407505", "color": "#32cd32"}, {"source": "12543640790", "target": "12543684546", "highway": "tertiary", "length": "217.7735019738022", "color": "#32cd32"}, {"source": "12543640790", "target": "12543640784", "highway": "residential", "length": "342.1506558623594", "color": "#ff69b4"}, {"source": "12543649133", "target": "12543640757", "highway": "residential", "length": "96.68487272863106", "color": "#ff69b4"}, {"source": "12543649133", "target": "12543649135", "highway": "residential", "length": "75.37691630398301", "color": "#ff69b4"}, {"source": "12543649133", "target": "12543640753", "highway": "residential", "length": "90.67325730671647", "color": "#ff69b4"}, {"source": "12543649135", "target": "12543640746", "highway": "residential", "length": "34.704470479758584", "color": "#ff69b4"}, {"source": "12543649135", "target": "12543649144", "highway": "residential", "length": "39.30240254817501", "color": "#ff69b4"}, {"source": "12543649135", "target": "12543649133", "highway": "residential", "length": "75.37691630398301", "color": "#ff69b4"}, {"source": "12543649136", "target": "12543640746", "highway": "residential", "length": "69.02033138373004", "color": "#ff69b4"}, {"source": "12543649136", "target": "12543649141", "highway": "residential", "length": "82.85649835306072", "color": "#ff69b4"}, {"source": "12543649136", "target": "12543649138", "highway": "residential", "length": "96.22187644201395", "color": "#ff69b4"}, {"source": "12543649138", "target": "12543649148", "highway": "residential", "length": "50.6871782937245", "color": "#ff69b4"}, {"source": "12543649138", "target": "12543640708", "highway": "residential", "length": "70.64295168373965", "color": "#ff69b4"}, {"source": "12543649138", "target": "12543649136", "highway": "residential", "length": "96.22187644201395", "color": "#ff69b4"}, {"source": "12543649141", "target": "12543649136", "highway": "residential", "length": "82.85649835306072", "color": "#ff69b4"}, {"source": "12543649144", "target": "12543649135", "highway": "residential", "length": "39.30240254817501", "color": "#ff69b4"}, {"source": "12543649148", "target": "12543649138", "highway": "residential", "length": "50.6871782937245", "color": "#ff69b4"}, {"source": "12543649148", "target": "12543640713", "highway": "residential", "length": "136.1360688214108", "color": "#ff69b4"}, {"source": "12543649148", "target": "12543640748", "highway": "residential", "length": "141.96649325278696", "color": "#ff69b4"}, {"source": "12543684517", "target": "12543684518", "highway": "tertiary", "length": "33.606866794675796", "color": "#32cd32"}, {"source": "12543684517", "target": "12546376530", "highway": "tertiary", "length": "51.53197590568436", "color": "#32cd32"}, {"source": "12543684517", "target": "12543684728", "highway": "residential", "length": "244.52288491112927", "color": "#ff69b4"}, {"source": "12543684518", "target": "12543684517", "highway": "tertiary", "length": "33.606866794675796", "color": "#32cd32"}, {"source": "12543684518", "target": "12543684520", "highway": "tertiary", "length": "24.694755237663884", "color": "#32cd32"}, {"source": "12543684518", "target": "12543684608", "highway": "residential", "length": "28.67153919494237", "color": "#ff69b4"}, {"source": "12543684520", "target": "12543684605", "highway": "tertiary", "length": "36.59170007222703", "color": "#32cd32"}, {"source": "12543684520", "target": "12543684518", "highway": "tertiary", "length": "24.694755237663884", "color": "#32cd32"}, {"source": "12543684520", "target": "12543684608", "highway": "tertiary", "length": "29.036669605856837", "color": "#32cd32"}, {"source": "12543684521", "target": "12546359770", "highway": "residential", "length": "39.53048196992768", "color": "#ff69b4"}, {"source": "12543684521", "target": "12546359767", "highway": "residential", "length": "43.176410146309834", "color": "#ff69b4"}, {"source": "12543684521", "target": "12546359791", "highway": "residential", "length": "35.623864991236964", "color": "#ff69b4"}, {"source": "12543684522", "target": "12546359770", "highway": "residential", "length": "4.403134187007685", "color": "#ff69b4"}, {"source": "12543684522", "target": "12543684525", "highway": "residential", "length": "53.8081148597363", "color": "#ff69b4"}, {"source": "12543684522", "target": "12546359767", "highway": "residential", "length": "123.4073194386077", "color": "#ff69b4"}, {"source": "12543684522", "target": "12546359763", "highway": "residential", "length": "94.36543091369354", "color": "#ff69b4"}, {"source": "12543684525", "target": "12543684526", "highway": "residential", "length": "28.42313335342934", "color": "#ff69b4"}, {"source": "12543684525", "target": "12546359757", "highway": "residential", "length": "44.98609580180967", "color": "#ff69b4"}, {"source": "12543684525", "target": "12543684522", "highway": "residential", "length": "53.8081148597363", "color": "#ff69b4"}, {"source": "12543684525", "target": "12546359762", "highway": "residential", "length": "178.52829009583488", "color": "#ff69b4"}, {"source": "12543684526", "target": "12543684525", "highway": "residential", "length": "28.42313335342934", "color": "#ff69b4"}, {"source": "12543684526", "target": "12543684529", "highway": "residential", "length": "116.09183655713316", "color": "#ff69b4"}, {"source": "12543684526", "target": "12543684723", "highway": "residential", "length": "92.43546351882569", "color": "#ff69b4"}, {"source": "12543684529", "target": "12543640775", "highway": "tertiary", "length": "1572.7063278386668", "color": "#32cd32"}, {"source": "12543684529", "target": "12543684526", "highway": "residential", "length": "116.09183655713318", "color": "#ff69b4"}, {"source": "12543684529", "target": "12543684723", "highway": "tertiary", "length": "118.42657525855236", "color": "#32cd32"}, {"source": "12543684546", "target": "12543684548", "highway": "tertiary", "length": "67.30590143806066", "color": "#32cd32"}, {"source": "12543684546", "target": "12543640790", "highway": "tertiary", "length": "217.77350197380224", "color": "#32cd32"}, {"source": "12543684546", "target": "12638012501", "highway": "residential", "length": "119.66581902688014", "color": "#ff69b4"}, {"source": "12543684548", "target": "12543640775", "highway": "tertiary", "length": "291.46535250415246", "color": "#32cd32"}, {"source": "12543684548", "target": "12543684546", "highway": "tertiary", "length": "67.30590143806066", "color": "#32cd32"}, {"source": "12543684548", "target": "12638005878", "highway": "residential", "length": "79.13822596089405", "color": "#ff69b4"}, {"source": "12543684569", "target": "12543684577", "highway": "tertiary", "length": "390.3825039568967", "color": "#32cd32"}, {"source": "12543684569", "target": "4566686973", "highway": "tertiary", "length": "75.48780640232195", "color": "#32cd32"}, {"source": "12543684569", "target": "12565546605", "highway": "residential", "length": "150.8969150052542", "color": "#ff69b4"}, {"source": "12543684577", "target": "12543684578", "highway": "tertiary", "length": "13.245512997182072", "color": "#32cd32"}, {"source": "12543684577", "target": "12543684569", "highway": "tertiary", "length": "390.38250395689664", "color": "#32cd32"}, {"source": "12543684577", "target": "12565546606", "highway": "residential", "length": "452.1132233531486", "color": "#ff69b4"}, {"source": "12543684578", "target": "12543684577", "highway": "tertiary", "length": "13.245512997182072", "color": "#32cd32"}, {"source": "12543684578", "target": "12543684582", "highway": "tertiary", "length": "307.2935064312111", "color": "#32cd32"}, {"source": "12543684578", "target": "12561306952", "highway": "residential", "length": "48.60460743780074", "color": "#ff69b4"}, {"source": "12543684582", "target": "12543684628", "highway": "tertiary", "length": "1259.8852990448986", "color": "#32cd32"}, {"source": "12543684582", "target": "12543684578", "highway": "tertiary", "length": "307.29350643121114", "color": "#32cd32"}, {"source": "12543684582", "target": "12561306965", "highway": "residential", "length": "167.60655231662736", "color": "#ff69b4"}, {"source": "12543684602", "target": "12543684723", "highway": "tertiary", "length": "102.06679902155396", "color": "#32cd32"}, {"source": "12543684602", "target": "12543684603", "highway": "tertiary", "length": "87.61589510749992", "color": "#32cd32"}, {"source": "12543684602", "target": "12543684725", "highway": "tertiary", "length": "129.67721200116407", "color": "#32cd32"}, {"source": "12543684602", "target": "12543684628", "highway": "tertiary", "length": "1055.1819325289093", "color": "#32cd32"}, {"source": "12543684603", "target": "12543684602", "highway": "tertiary", "length": "87.61589510749992", "color": "#32cd32"}, {"source": "12543684603", "target": "12543684605", "highway": "tertiary", "length": "61.125912424979774", "color": "#32cd32"}, {"source": "12543684603", "target": "12546376511", "highway": "residential", "length": "66.00817377279466", "color": "#ff69b4"}, {"source": "12543684605", "target": "12543684520", "highway": "tertiary", "length": "36.59170007222703", "color": "#32cd32"}, {"source": "12543684605", "target": "12543684603", "highway": "tertiary", "length": "61.125912424979774", "color": "#32cd32"}, {"source": "12543684605", "target": "12543684725", "highway": "residential", "length": "157.10617050094993", "color": "#ff69b4"}, {"source": "12543684608", "target": "12543684520", "highway": "tertiary", "length": "29.036669605856837", "color": "#32cd32"}, {"source": "12543684608", "target": "12546359797", "highway": "tertiary", "length": "33.83152762055687", "color": "#32cd32"}, {"source": "12543684608", "target": "12543684518", "highway": "residential", "length": "28.67153919494237", "color": "#ff69b4"}, {"source": "12543684608", "target": "12546359767", "highway": "residential", "length": "27.078739224858793", "color": "#ff69b4"}, {"source": "12543684610", "target": "12546376531", "highway": "tertiary", "length": "27.72318020004946", "color": "#32cd32"}, {"source": "12543684610", "target": "12543684613", "highway": "tertiary", "length": "57.804155531706854", "color": "#32cd32"}, {"source": "12543684610", "target": "12546359786", "highway": "residential", "length": "74.96665110892701", "color": "#ff69b4"}, {"source": "12543684613", "target": "12546376512", "highway": "tertiary", "length": "33.74917342682452", "color": "#32cd32"}, {"source": "12543684613", "target": "12543684610", "highway": "tertiary", "length": "57.804155531706854", "color": "#32cd32"}, {"source": "12543684613", "target": "12546359774", "highway": "residential", "length": "81.77299239492834", "color": "#ff69b4"}, {"source": "12543684613", "target": "12546376535", "highway": "residential", "length": "60.326893322804956", "color": "#ff69b4"}, {"source": "12543684628", "target": "9835026424", "highway": "tertiary", "length": "4879.306690004461", "color": "#32cd32"}, {"source": "12543684628", "target": "12543684582", "highway": "tertiary", "length": "1259.8852990448988", "color": "#32cd32"}, {"source": "12543684628", "target": "12543684602", "highway": "tertiary", "length": "1055.1819325289093", "color": "#32cd32"}, {"source": "12543684629", "target": "9835026424", "highway": "residential", "length": "356.1350254220545", "color": "#ff69b4"}, {"source": "12543684723", "target": "12543684602", "highway": "tertiary", "length": "102.06679902155396", "color": "#32cd32"}, {"source": "12543684723", "target": "12543684529", "highway": "tertiary", "length": "118.42657525855238", "color": "#32cd32"}, {"source": "12543684723", "target": "12543684526", "highway": "residential", "length": "92.43546351882569", "color": "#ff69b4"}, {"source": "12543684725", "target": "12543684728", "highway": "tertiary", "length": "115.61061140963461", "color": "#32cd32"}, {"source": "12543684725", "target": "12543684602", "highway": "tertiary", "length": "129.67721200116407", "color": "#32cd32"}, {"source": "12543684725", "target": "12543684605", "highway": "residential", "length": "157.10617050095", "color": "#ff69b4"}, {"source": "12543684728", "target": "12543684725", "highway": "tertiary", "length": "115.61061140963461", "color": "#32cd32"}, {"source": "12543684728", "target": "12546376566", "highway": "tertiary", "length": "2489.060389051242", "color": "#32cd32"}, {"source": "12543684728", "target": "12543684517", "highway": "residential", "length": "244.52288491112927", "color": "#ff69b4"}, {"source": "12543684732", "target": "12546376512", "highway": "tertiary", "length": "3061.09916350142", "color": "#32cd32"}, {"source": "12543684732", "target": "12555934124", "highway": "tertiary", "length": "217.1552070186106", "color": "#32cd32"}, {"source": "12543684732", "target": "12555934141", "highway": "residential", "length": "18.261064475569604", "color": "#ff69b4"}, {"source": "12543684796", "target": "12543684799", "highway": "tertiary", "length": "51.538876271423206", "color": "#32cd32"}, {"source": "12543684796", "target": "12555934124", "highway": "tertiary", "length": "237.84384265710338", "color": "#32cd32"}, {"source": "12543684796", "target": "12555934134", "highway": "residential", "length": "68.09556951061282", "color": "#ff69b4"}, {"source": "12543684799", "target": "12543684800", "highway": "tertiary", "length": "33.61334217259656", "color": "#32cd32"}, {"source": "12543684799", "target": "12543684796", "highway": "tertiary", "length": "51.538876271423206", "color": "#32cd32"}, {"source": "12543684799", "target": "12555934158", "highway": "residential", "length": "38.3747033165396", "color": "#ff69b4"}, {"source": "12543684800", "target": "12543684799", "highway": "tertiary", "length": "33.61334217259656", "color": "#32cd32"}, {"source": "12543684800", "target": "12543684802", "highway": "tertiary", "length": "55.52092252984113", "color": "#32cd32"}, {"source": "12543684800", "target": "12555934158", "highway": "residential", "length": "36.99816667428554", "color": "#ff69b4"}, {"source": "12543684800", "target": "12555934164", "highway": "residential", "length": "98.03601360080684", "color": "#ff69b4"}, {"source": "12543684802", "target": "12543684804", "highway": "tertiary", "length": "62.742164231606104", "color": "#32cd32"}, {"source": "12543684802", "target": "12543684800", "highway": "tertiary", "length": "55.52092252984113", "color": "#32cd32"}, {"source": "12543684802", "target": "12555934123", "highway": "residential", "length": "188.2065606750873", "color": "#ff69b4"}, {"source": "12546301381", "target": "12546301382", "highway": "residential", "length": "20.37586954642227", "color": "#ff69b4"}, {"source": "12546301381", "target": "12546301393", "highway": "residential", "length": "36.38815139488886", "color": "#ff69b4"}, {"source": "12546301381", "target": "12546301379", "highway": "residential", "length": "140.46084508987852", "color": "#ff69b4"}, {"source": "12546301382", "target": "12565423474", "highway": "residential", "length": "48.86737384930833", "color": "#ff69b4"}, {"source": "12546301382", "target": "12546301381", "highway": "residential", "length": "20.37586954642227", "color": "#ff69b4"}, {"source": "12546301382", "target": "12546301385", "highway": "residential", "length": "27.2143101082387", "color": "#ff69b4"}, {"source": "12546301384", "target": "12565423474", "highway": "residential", "length": "167.25346590608765", "color": "#ff69b4"}, {"source": "12546301385", "target": "12546301382", "highway": "residential", "length": "27.2143101082387", "color": "#ff69b4"}, {"source": "12546301386", "target": "12565423474", "highway": "residential", "length": "58.04104230992108", "color": "#ff69b4"}, {"source": "12546301392", "target": "12546301393", "highway": "residential", "length": "49.525705756610925", "color": "#ff69b4"}, {"source": "12546301393", "target": "12546301381", "highway": "residential", "length": "36.38815139488886", "color": "#ff69b4"}, {"source": "12546301393", "target": "12546301394", "highway": "residential", "length": "46.70817695475282", "color": "#ff69b4"}, {"source": "12546301393", "target": "12546301392", "highway": "residential", "length": "49.52570575661092", "color": "#ff69b4"}, {"source": "12546301394", "target": "12546301393", "highway": "residential", "length": "46.70817695475282", "color": "#ff69b4"}, {"source": "12546359757", "target": "12543684525", "highway": "residential", "length": "44.98609580180967", "color": "#ff69b4"}, {"source": "12546359762", "target": "12543684525", "highway": "residential", "length": "178.52829009583488", "color": "#ff69b4"}, {"source": "12546359763", "target": "12543684522", "highway": "residential", "length": "94.36543091369353", "color": "#ff69b4"}, {"source": "12546359767", "target": "12543684521", "highway": "residential", "length": "43.176410146309834", "color": "#ff69b4"}, {"source": "12546359767", "target": "12543684522", "highway": "residential", "length": "123.4073194386077", "color": "#ff69b4"}, {"source": "12546359767", "target": "12543684608", "highway": "residential", "length": "27.078739224858793", "color": "#ff69b4"}, {"source": "12546359770", "target": "12543684522", "highway": "residential", "length": "4.403134187007685", "color": "#ff69b4"}, {"source": "12546359770", "target": "12543684521", "highway": "residential", "length": "39.53048196992768", "color": "#ff69b4"}, {"source": "12546359770", "target": "12546359771", "highway": "residential", "length": "83.50155805741106", "color": "#ff69b4"}, {"source": "12546359771", "target": "12546359770", "highway": "residential", "length": "83.50155805741106", "color": "#ff69b4"}, {"source": "12546359774", "target": "12546359787", "highway": "residential", "length": "34.17529604870551", "color": "#ff69b4"}, {"source": "12546359774", "target": "12546359788", "highway": "residential", "length": "22.959316332847372", "color": "#ff69b4"}, {"source": "12546359774", "target": "12543684613", "highway": "residential", "length": "81.77299239492834", "color": "#ff69b4"}, {"source": "12546359775", "target": "12546359791", "highway": "residential", "length": "35.83737613156613", "color": "#ff69b4"}, {"source": "12546359786", "target": "12546359787", "highway": "residential", "length": "5.653530833305053", "color": "#ff69b4"}, {"source": "12546359786", "target": "12543684610", "highway": "residential", "length": "74.96665110892701", "color": "#ff69b4"}, {"source": "12546359786", "target": "12546376523", "highway": "residential", "length": "39.15372398130229", "color": "#ff69b4"}, {"source": "12546359787", "target": "12546359774", "highway": "residential", "length": "34.17529604870551", "color": "#ff69b4"}, {"source": "12546359787", "target": "12546359786", "highway": "residential", "length": "5.653530833305053", "color": "#ff69b4"}, {"source": "12546359787", "target": "12546359790", "highway": "residential", "length": "24.550900107718494", "color": "#ff69b4"}, {"source": "12546359788", "target": "12546359789", "highway": "residential", "length": "14.452397258813312", "color": "#ff69b4"}, {"source": "12546359788", "target": "12546359774", "highway": "residential", "length": "22.959316332847372", "color": "#ff69b4"}, {"source": "12546359788", "target": "12546359790", "highway": "residential", "length": "39.16367790791347", "color": "#ff69b4"}, {"source": "12546359789", "target": "12546359788", "highway": "residential", "length": "14.452397258813312", "color": "#ff69b4"}, {"source": "12546359790", "target": "12546359788", "highway": "residential", "length": "39.16367790791347", "color": "#ff69b4"}, {"source": "12546359790", "target": "12546376505", "highway": "residential", "length": "33.11726439538349", "color": "#ff69b4"}, {"source": "12546359790", "target": "12546359787", "highway": "residential", "length": "24.550900107718494", "color": "#ff69b4"}, {"source": "12546359791", "target": "12543684521", "highway": "residential", "length": "35.623864991236964", "color": "#ff69b4"}, {"source": "12546359791", "target": "12546376501", "highway": "residential", "length": "7.896239381052262", "color": "#ff69b4"}, {"source": "12546359791", "target": "12546359775", "highway": "residential", "length": "35.83737613156613", "color": "#ff69b4"}, {"source": "12546359792", "target": "12546359793", "highway": "residential", "length": "31.193236984875522", "color": "#ff69b4"}, {"source": "12546359793", "target": "12546359792", "highway": "residential", "length": "31.193236984875522", "color": "#ff69b4"}, {"source": "12546359793", "target": "12546376501", "highway": "residential", "length": "7.042010255306691", "color": "#ff69b4"}, {"source": "12546359793", "target": "12546359796", "highway": "residential", "length": "58.310011618640466", "color": "#ff69b4"}, {"source": "12546359796", "target": "12546359793", "highway": "residential", "length": "58.310011618640466", "color": "#ff69b4"}, {"source": "12546359797", "target": "12546376531", "highway": "tertiary", "length": "20.36860963369771", "color": "#32cd32"}, {"source": "12546359797", "target": "12543684608", "highway": "tertiary", "length": "33.83152762055687", "color": "#32cd32"}, {"source": "12546359797", "target": "12546359800", "highway": "residential", "length": "39.66211231477118", "color": "#ff69b4"}, {"source": "12546359797", "target": "12546376530", "highway": "residential", "length": "101.73666506493902", "color": "#ff69b4"}, {"source": "12546359800", "target": "12546359797", "highway": "residential", "length": "39.66211231477118", "color": "#ff69b4"}, {"source": "12546376501", "target": "12546359793", "highway": "residential", "length": "7.042010255306691", "color": "#ff69b4"}, {"source": "12546376501", "target": "12546359791", "highway": "residential", "length": "7.896239381052262", "color": "#ff69b4"}, {"source": "12546376501", "target": "12546376504", "highway": "residential", "length": "33.66009747932437", "color": "#ff69b4"}, {"source": "12546376504", "target": "12546376501", "highway": "residential", "length": "33.66009747932437", "color": "#ff69b4"}, {"source": "12546376505", "target": "12546359790", "highway": "residential", "length": "33.11726439538349", "color": "#ff69b4"}, {"source": "12546376511", "target": "12543684603", "highway": "residential", "length": "66.00817377279466", "color": "#ff69b4"}, {"source": "12546376512", "target": "12543684613", "highway": "tertiary", "length": "33.74917342682452", "color": "#32cd32"}, {"source": "12546376512", "target": "12543684732", "highway": "tertiary", "length": "3061.099163501419", "color": "#32cd32"}, {"source": "12546376512", "target": "12546376517", "highway": "residential", "length": "113.47894373731161", "color": "#ff69b4"}, {"source": "12546376517", "target": "12546376512", "highway": "residential", "length": "113.4789437373116", "color": "#ff69b4"}, {"source": "12546376523", "target": "12546359786", "highway": "residential", "length": "39.15372398130229", "color": "#ff69b4"}, {"source": "12546376530", "target": "12543684517", "highway": "tertiary", "length": "51.53197590568436", "color": "#32cd32"}, {"source": "12546376530", "target": "4567054190", "highway": "tertiary", "length": "2480.9221575501465", "color": "#32cd32"}, {"source": "12546376530", "target": "12546359797", "highway": "residential", "length": "101.736665064939", "color": "#ff69b4"}, {"source": "12546376531", "target": "12546359797", "highway": "tertiary", "length": "20.36860963369771", "color": "#32cd32"}, {"source": "12546376531", "target": "12543684610", "highway": "tertiary", "length": "27.72318020004946", "color": "#32cd32"}, {"source": "12546376531", "target": "12546376532", "highway": "residential", "length": "61.18443484204233", "color": "#ff69b4"}, {"source": "12546376532", "target": "12546376531", "highway": "residential", "length": "61.18443484204233", "color": "#ff69b4"}, {"source": "12546376535", "target": "12543684613", "highway": "residential", "length": "60.32689332280495", "color": "#ff69b4"}, {"source": "12555934123", "target": "12543684802", "highway": "residential", "length": "188.2065606750873", "color": "#ff69b4"}, {"source": "12555934124", "target": "12543684796", "highway": "tertiary", "length": "237.8438426571034", "color": "#32cd32"}, {"source": "12555934124", "target": "12543684732", "highway": "tertiary", "length": "217.1552070186106", "color": "#32cd32"}, {"source": "12555934124", "target": "12555934129", "highway": "residential", "length": "121.21298733316299", "color": "#ff69b4"}, {"source": "12555934129", "target": "12555934124", "highway": "residential", "length": "121.21298733316299", "color": "#ff69b4"}, {"source": "12555934130", "target": "12555934131", "highway": "residential", "length": "32.21855008966378", "color": "#ff69b4"}, {"source": "12555934130", "target": "12561280085", "highway": "residential", "length": "18.034816460051758", "color": "#ff69b4"}, {"source": "12555934130", "target": "12555934132", "highway": "residential", "length": "54.91441019287503", "color": "#ff69b4"}, {"source": "12555934131", "target": "12555934130", "highway": "residential", "length": "32.21855008966378", "color": "#ff69b4"}, {"source": "12555934132", "target": "12555934134", "highway": "residential", "length": "14.288661776706267", "color": "#ff69b4"}, {"source": "12555934132", "target": "12555934130", "highway": "residential", "length": "54.91441019287503", "color": "#ff69b4"}, {"source": "12555934132", "target": "12555934136", "highway": "residential", "length": "30.826418875146924", "color": "#ff69b4"}, {"source": "12555934134", "target": "12555934132", "highway": "residential", "length": "14.288661776706267", "color": "#ff69b4"}, {"source": "12555934134", "target": "12555934136", "highway": "residential", "length": "17.392426089488236", "color": "#ff69b4"}, {"source": "12555934134", "target": "12543684796", "highway": "residential", "length": "68.09556951061282", "color": "#ff69b4"}, {"source": "12555934136", "target": "12555934134", "highway": "residential", "length": "17.392426089488236", "color": "#ff69b4"}, {"source": "12555934136", "target": "12555934138", "highway": "residential", "length": "17.03449828257859", "color": "#ff69b4"}, {"source": "12555934136", "target": "12555934132", "highway": "residential", "length": "30.826418875146924", "color": "#ff69b4"}, {"source": "12555934138", "target": "12555934136", "highway": "residential", "length": "17.03449828257859", "color": "#ff69b4"}, {"source": "12555934139", "target": "12555934145", "highway": "residential", "length": "12.042427567059889", "color": "#ff69b4"}, {"source": "12555934139", "target": "12555934141", "highway": "residential", "length": "88.03410838010346", "color": "#ff69b4"}, {"source": "12555934139", "target": "12555934153", "highway": "residential", "length": "72.78025456134898", "color": "#ff69b4"}, {"source": "12555934141", "target": "12543684732", "highway": "residential", "length": "18.261064475569604", "color": "#ff69b4"}, {"source": "12555934141", "target": "12555934139", "highway": "residential", "length": "88.03410838010346", "color": "#ff69b4"}, {"source": "12555934141", "target": "12555934145", "highway": "residential", "length": "98.12892580928114", "color": "#ff69b4"}, {"source": "12555934145", "target": "12555934139", "highway": "residential", "length": "12.042427567059889", "color": "#ff69b4"}, {"source": "12555934145", "target": "12555934150", "highway": "residential", "length": "151.1041523610375", "color": "#ff69b4"}, {"source": "12555934145", "target": "12555934141", "highway": "residential", "length": "98.12892580928114", "color": "#ff69b4"}, {"source": "12555934150", "target": "12555934145", "highway": "residential", "length": "151.1041523610375", "color": "#ff69b4"}, {"source": "12555934150", "target": "12555934158", "highway": "residential", "length": "77.74867481600546", "color": "#ff69b4"}, {"source": "12555934150", "target": "12555934154", "highway": "residential", "length": "98.93062608507122", "color": "#ff69b4"}, {"source": "12555934153", "target": "12555934139", "highway": "residential", "length": "72.78025456134898", "color": "#ff69b4"}, {"source": "12555934154", "target": "12555934150", "highway": "residential", "length": "98.93062608507122", "color": "#ff69b4"}, {"source": "12555934158", "target": "12543684800", "highway": "residential", "length": "36.99816667428554", "color": "#ff69b4"}, {"source": "12555934158", "target": "12555934150", "highway": "residential", "length": "77.74867481600546", "color": "#ff69b4"}, {"source": "12555934158", "target": "12543684799", "highway": "residential", "length": "38.3747033165396", "color": "#ff69b4"}, {"source": "12556117079", "target": "12556117083", "highway": "residential", "length": "142.68112387032446", "color": "#ff69b4"}, {"source": "12556117079", "target": "3643887259", "highway": "residential", "length": "151.11727136996575", "color": "#ff69b4"}, {"source": "12556117079", "target": "12556176033", "highway": "residential", "length": "114.96192727247971", "color": "#ff69b4"}, {"source": "12556117083", "target": "12556117092", "highway": "residential", "length": "118.26412539652583", "color": "#ff69b4"}, {"source": "12556117083", "target": "12556117079", "highway": "residential", "length": "142.68112387032446", "color": "#ff69b4"}, {"source": "12556117083", "target": "12556176030", "highway": "residential", "length": "76.41396392604385", "color": "#ff69b4"}, {"source": "12556117086", "target": "12556117087", "highway": "residential", "length": "57.70192349640342", "color": "#ff69b4"}, {"source": "12556117086", "target": "12556117092", "highway": "residential", "length": "36.610035092755226", "color": "#ff69b4"}, {"source": "12556117086", "target": "12556176039", "highway": "residential", "length": "176.43320880591588", "color": "#ff69b4"}, {"source": "12556117087", "target": "12556117086", "highway": "residential", "length": "57.70192349640342", "color": "#ff69b4"}, {"source": "12556117087", "target": "12540965559", "highway": "residential", "length": "50.50148270771924", "color": "#ff69b4"}, {"source": "12556117087", "target": "3643887268", "highway": "residential", "length": "162.63353018753475", "color": "#ff69b4"}, {"source": "12556117092", "target": "12556117086", "highway": "residential", "length": "36.610035092755226", "color": "#ff69b4"}, {"source": "12556117092", "target": "12556117083", "highway": "residential", "length": "118.26412539652583", "color": "#ff69b4"}, {"source": "12556117092", "target": "12556117094", "highway": "residential", "length": "94.34037141461147", "color": "#ff69b4"}, {"source": "12556117094", "target": "12556117092", "highway": "residential", "length": "94.34037141461147", "color": "#ff69b4"}, {"source": "12556117095", "target": "12540965559", "highway": "residential", "length": "28.503131231298443", "color": "#ff69b4"}, {"source": "12556117095", "target": "12540965551", "highway": "residential", "length": "107.534841628756", "color": "#ff69b4"}, {"source": "12556117095", "target": "12556117097", "highway": "residential", "length": "52.682027519978966", "color": "#ff69b4"}, {"source": "12556117097", "target": "12556176028", "highway": "residential", "length": "205.94632629980998", "color": "#ff69b4"}, {"source": "12556117097", "target": "12556117095", "highway": "residential", "length": "52.682027519978966", "color": "#ff69b4"}, {"source": "12556117097", "target": "12556176006", "highway": "residential", "length": "123.14875975334704", "color": "#ff69b4"}, {"source": "12556176006", "target": "12556117097", "highway": "residential", "length": "123.14875975334702", "color": "#ff69b4"}, {"source": "12556176021", "target": "12556176033", "highway": "residential", "length": "52.0235829419521", "color": "#ff69b4"}, {"source": "12556176021", "target": "12556176028", "highway": "residential", "length": "125.516429776573", "color": "#ff69b4"}, {"source": "12556176021", "target": "12556176023", "highway": "residential", "length": "66.88183932903218", "color": "#ff69b4"}, {"source": "12556176023", "target": "12556176021", "highway": "residential", "length": "66.88183932903218", "color": "#ff69b4"}, {"source": "12556176028", "target": "12556176021", "highway": "residential", "length": "125.51642977657299", "color": "#ff69b4"}, {"source": "12556176028", "target": "12556117097", "highway": "residential", "length": "205.94632629980993", "color": "#ff69b4"}, {"source": "12556176028", "target": "12556176039", "highway": "residential", "length": "67.34432040266223", "color": "#ff69b4"}, {"source": "12556176030", "target": "12556176039", "highway": "residential", "length": "8.506307259688972", "color": "#ff69b4"}, {"source": "12556176030", "target": "12556117083", "highway": "residential", "length": "76.41396392604383", "color": "#ff69b4"}, {"source": "12556176030", "target": "12556176033", "highway": "residential", "length": "141.04309110266905", "color": "#ff69b4"}, {"source": "12556176033", "target": "12556117079", "highway": "residential", "length": "114.96192727247968", "color": "#ff69b4"}, {"source": "12556176033", "target": "12556176021", "highway": "residential", "length": "52.0235829419521", "color": "#ff69b4"}, {"source": "12556176033", "target": "12556176030", "highway": "residential", "length": "141.04309110266905", "color": "#ff69b4"}, {"source": "12556176039", "target": "12556176030", "highway": "residential", "length": "8.506307259688972", "color": "#ff69b4"}, {"source": "12556176039", "target": "12556176028", "highway": "residential", "length": "67.34432040266223", "color": "#ff69b4"}, {"source": "12556176039", "target": "12556117086", "highway": "residential", "length": "176.43320880591585", "color": "#ff69b4"}, {"source": "12561280085", "target": "12555934130", "highway": "residential", "length": "18.034816460051758", "color": "#ff69b4"}, {"source": "12561306939", "target": "12561306948", "highway": "residential", "length": "382.0741846004569", "color": "#ff69b4"}, {"source": "12561306948", "target": "12561306952", "highway": "residential", "length": "199.62456038270884", "color": "#ff69b4"}, {"source": "12561306948", "target": "12561306939", "highway": "residential", "length": "382.0741846004569", "color": "#ff69b4"}, {"source": "12561306948", "target": "12561306965", "highway": "residential", "length": "104.51484854113039", "color": "#ff69b4"}, {"source": "12561306952", "target": "12561306961", "highway": "residential", "length": "33.750417264022495", "color": "#ff69b4"}, {"source": "12561306952", "target": "12543684578", "highway": "residential", "length": "48.60460743780074", "color": "#ff69b4"}, {"source": "12561306952", "target": "12561306948", "highway": "residential", "length": "199.62456038270884", "color": "#ff69b4"}, {"source": "12561306961", "target": "12561306952", "highway": "residential", "length": "33.750417264022495", "color": "#ff69b4"}, {"source": "12561306961", "target": "12561306965", "highway": "residential", "length": "87.07928488084607", "color": "#ff69b4"}, {"source": "12561306961", "target": "12561306964", "highway": "residential", "length": "47.69262593310023", "color": "#ff69b4"}, {"source": "12561306964", "target": "12561306961", "highway": "residential", "length": "47.69262593310023", "color": "#ff69b4"}, {"source": "12561306965", "target": "12561306948", "highway": "residential", "length": "104.51484854113039", "color": "#ff69b4"}, {"source": "12561306965", "target": "12561306961", "highway": "residential", "length": "87.07928488084609", "color": "#ff69b4"}, {"source": "12561306965", "target": "12543684582", "highway": "residential", "length": "167.60655231662736", "color": "#ff69b4"}, {"source": "12565423474", "target": "12546301382", "highway": "residential", "length": "48.86737384930833", "color": "#ff69b4"}, {"source": "12565423474", "target": "12546301384", "highway": "residential", "length": "167.25346590608765", "color": "#ff69b4"}, {"source": "12565423474", "target": "12546301386", "highway": "residential", "length": "58.041042309921075", "color": "#ff69b4"}, {"source": "12565546604", "target": "12565546605", "highway": "residential", "length": "100.24948765139413", "color": "#ff69b4"}, {"source": "12565546604", "target": "12546376615", "highway": "tertiary", "length": "100.95865505743913", "color": "#32cd32"}, {"source": "12565546604", "target": "4566686973", "highway": "tertiary", "length": "153.13733413558734", "color": "#32cd32"}, {"source": "12565546605", "target": "12565546604", "highway": "residential", "length": "100.24948765139413", "color": "#ff69b4"}, {"source": "12565546605", "target": "12565546606", "highway": "residential", "length": "42.55491244394804", "color": "#ff69b4"}, {"source": "12565546605", "target": "12543684569", "highway": "residential", "length": "150.8969150052542", "color": "#ff69b4"}, {"source": "12565546606", "target": "12546376611", "highway": "residential", "length": "141.2163476799407", "color": "#ff69b4"}, {"source": "12565546606", "target": "12565546605", "highway": "residential", "length": "42.55491244394804", "color": "#ff69b4"}, {"source": "12565546606", "target": "12543684577", "highway": "residential", "length": "452.11322335314867", "color": "#ff69b4"}, {"source": "12603767537", "target": "12603804082", "highway": "tertiary", "length": "9.589145725517943", "color": "#32cd32"}, {"source": "12603767537", "target": "12603804075", "highway": "primary", "length": "549.9058494971739", "color": "#1e90ff"}, {"source": "12603767538", "target": "12603804071", "highway": "tertiary", "length": "10.412674161410864", "color": "#32cd32"}, {"source": "12603767538", "target": "12541087023", "highway": "tertiary", "length": "3367.283547746775", "color": "#32cd32"}, {"source": "12603767538", "target": "12603804074", "highway": "primary", "length": "274.6807667023128", "color": "#1e90ff"}, {"source": "12603767555", "target": "12603804044", "highway": "primary", "length": "9.643079214919101", "color": "#1e90ff"}, {"source": "12603767555", "target": "12541087070", "highway": "primary", "length": "3280.36630558794", "color": "#1e90ff"}, {"source": "12603767555", "target": "12603804049", "highway": "primary", "length": "203.85898177314468", "color": "#1e90ff"}, {"source": "12603804044", "target": "3643865970", "highway": "primary", "length": "1767.310954503987", "color": "#1e90ff"}, {"source": "12603804044", "target": "12603767555", "highway": "primary", "length": "9.643079214919101", "color": "#1e90ff"}, {"source": "12603804044", "target": "12603804243", "highway": "primary", "length": "2192.515419850404", "color": "#1e90ff"}, {"source": "12603804049", "target": "12603804050", "highway": "primary_link", "length": "9.447527608037284", "color": "#808080"}, {"source": "12603804049", "target": "12603804056", "highway": "primary", "length": "786.0599448162302", "color": "#1e90ff"}, {"source": "12603804050", "target": "12603804049", "highway": "primary_link", "length": "9.447527608037284", "color": "#808080"}, {"source": "12603804050", "target": "12603804044", "highway": "primary", "length": "205.1719623427494", "color": "#1e90ff"}, {"source": "12603804056", "target": "12603804057", "highway": "primary_link", "length": "10.061790051021086", "color": "#808080"}, {"source": "12603804056", "target": "12541054593", "highway": "primary", "length": "1600.1879902708845", "color": "#1e90ff"}, {"source": "12603804057", "target": "12603804056", "highway": "primary_link", "length": "10.061790051021086", "color": "#808080"}, {"source": "12603804057", "target": "12603804050", "highway": "primary", "length": "786.2647769350599", "color": "#1e90ff"}, {"source": "12603804071", "target": "12603767538", "highway": "tertiary", "length": "10.412674161410864", "color": "#32cd32"}, {"source": "12603804071", "target": "3643215129", "highway": "tertiary", "length": "4433.373127416499", "color": "#32cd32"}, {"source": "12603804071", "target": "12541054592", "highway": "primary", "length": "19.240692575251654", "color": "#1e90ff"}, {"source": "12603804074", "target": "12603804075", "highway": "primary_link", "length": "9.06360127139736", "color": "#808080"}, {"source": "12603804074", "target": "12603804082", "highway": "primary", "length": "550.8434135249444", "color": "#1e90ff"}, {"source": "12603804075", "target": "12603804074", "highway": "primary_link", "length": "9.06360127139736", "color": "#808080"}, {"source": "12603804075", "target": "12603804071", "highway": "primary", "length": "275.4825738627879", "color": "#1e90ff"}, {"source": "12603804082", "target": "12603767537", "highway": "tertiary", "length": "9.589145725517943", "color": "#32cd32"}, {"source": "12603804082", "target": "9835026105", "highway": "tertiary", "length": "3467.9469858353023", "color": "#32cd32"}, {"source": "12603804082", "target": "12603804100", "highway": "primary", "length": "1135.2153477517054", "color": "#1e90ff"}, {"source": "12603804099", "target": "12603804100", "highway": "tertiary", "length": "8.417716456561761", "color": "#32cd32"}, {"source": "12603804099", "target": "12400280892", "highway": "tertiary", "length": "2096.237184668823", "color": "#32cd32"}, {"source": "12603804099", "target": "12603767537", "highway": "primary", "length": "1137.1751241815841", "color": "#1e90ff"}, {"source": "12603804100", "target": "12603804099", "highway": "tertiary", "length": "8.417716456561761", "color": "#32cd32"}, {"source": "12603804100", "target": "12603804107", "highway": "primary", "length": "491.12838143321414", "color": "#1e90ff"}, {"source": "12603804107", "target": "12603804108", "highway": "primary_link", "length": "9.998262161064421", "color": "#808080"}, {"source": "12603804107", "target": "12638133750", "highway": "primary", "length": "2184.909366112639", "color": "#1e90ff"}, {"source": "12603804108", "target": "12603804107", "highway": "primary_link", "length": "9.998262161064421", "color": "#808080"}, {"source": "12603804108", "target": "12603804099", "highway": "primary", "length": "491.3884131058236", "color": "#1e90ff"}, {"source": "12603804137", "target": "12603804256", "highway": "tertiary", "length": "10.723369706447695", "color": "#32cd32"}, {"source": "12603804137", "target": "12603804244", "highway": "primary", "length": "869.6575685808401", "color": "#1e90ff"}, {"source": "12603804138", "target": "12603804137", "highway": "primary", "length": "18.944388193074126", "color": "#1e90ff"}, {"source": "12603804138", "target": "11602174988", "highway": "tertiary", "length": "2545.3366443302907", "color": "#32cd32"}, {"source": "12603804139", "target": "12603804140", "highway": "primary", "length": "18.155606081721924", "color": "#1e90ff"}, {"source": "12603804139", "target": "12231648424", "highway": "unclassified", "length": "2955.3463502728405", "color": "#808080"}, {"source": "12603804140", "target": "5868899103", "highway": "tertiary", "length": "8.321111935866519", "color": "#32cd32"}, {"source": "12603804140", "target": "12603804289", "highway": "primary", "length": "277.7572574250973", "color": "#1e90ff"}, {"source": "12603804141", "target": "12603804289", "highway": "tertiary", "length": "9.829813242738759", "color": "#32cd32"}, {"source": "12603804141", "target": "5868899103", "highway": "primary", "length": "279.0493316493887", "color": "#1e90ff"}, {"source": "12603804143", "target": "12231648396", "highway": "unclassified", "length": "9.675278467308768", "color": "#808080"}, {"source": "12603804143", "target": "12603804361", "highway": "primary", "length": "2045.55628798499", "color": "#1e90ff"}, {"source": "12603804242", "target": "12603804243", "highway": "primary_link", "length": "9.942905377111407", "color": "#808080"}, {"source": "12603804242", "target": "12603767555", "highway": "primary", "length": "2193.9396660370257", "color": "#1e90ff"}, {"source": "12603804243", "target": "12603804242", "highway": "primary_link", "length": "9.942905377111407", "color": "#808080"}, {"source": "12603804243", "target": "12603804245", "highway": "primary", "length": "112.89889255594544", "color": "#1e90ff"}, {"source": "12603804244", "target": "12603804242", "highway": "primary", "length": "112.57469694169092", "color": "#1e90ff"}, {"source": "12603804244", "target": "12603804245", "highway": "primary_link", "length": "10.062079704725173", "color": "#808080"}, {"source": "12603804245", "target": "12603804244", "highway": "primary_link", "length": "10.062079704725173", "color": "#808080"}, {"source": "12603804245", "target": "12603804256", "highway": "primary", "length": "864.9969893331464", "color": "#1e90ff"}, {"source": "12603804256", "target": "12603804137", "highway": "tertiary", "length": "10.723369706447695", "color": "#32cd32"}, {"source": "12603804256", "target": "3643865431", "highway": "tertiary", "length": "545.9536913986743", "color": "#32cd32"}, {"source": "12603804256", "target": "12603804139", "highway": "primary", "length": "4139.5209648540285", "color": "#1e90ff"}, {"source": "12603804289", "target": "12603804141", "highway": "tertiary", "length": "9.829813242738759", "color": "#32cd32"}, {"source": "12603804289", "target": "3643158513", "highway": "tertiary", "length": "3030.5796099430345", "color": "#32cd32"}, {"source": "12603804289", "target": "12603804301", "highway": "primary", "length": "1633.5197035639155", "color": "#1e90ff"}, {"source": "12603804300", "target": "12603804301", "highway": "primary_link", "length": "9.569580735740786", "color": "#808080"}, {"source": "12603804300", "target": "12603804141", "highway": "primary", "length": "1635.3008544673944", "color": "#1e90ff"}, {"source": "12603804301", "target": "12603804300", "highway": "primary_link", "length": "9.569580735740786", "color": "#808080"}, {"source": "12603804301", "target": "12603804143", "highway": "primary", "length": "3185.4924908733983", "color": "#1e90ff"}, {"source": "12603804345", "target": "12603804367", "highway": "unclassified", "length": "9.014964712603883", "color": "#808080"}, {"source": "12603804345", "target": "12603804372", "highway": "primary", "length": "458.7753138061598", "color": "#1e90ff"}, {"source": "12603804360", "target": "12603804361", "highway": "primary_link", "length": "8.073154235518617", "color": "#808080"}, {"source": "12603804360", "target": "12231648396", "highway": "primary", "length": "2044.1586575912868", "color": "#1e90ff"}, {"source": "12603804361", "target": "12603804360", "highway": "primary_link", "length": "8.073154235518617", "color": "#808080"}, {"source": "12603804361", "target": "12603804345", "highway": "primary", "length": "300.55660142096383", "color": "#1e90ff"}, {"source": "12603804367", "target": "12603804345", "highway": "unclassified", "length": "9.014964712603883", "color": "#808080"}, {"source": "12603804367", "target": "12231648349", "highway": "unclassified", "length": "464.07841799071014", "color": "#808080"}, {"source": "12603804367", "target": "12603804360", "highway": "primary", "length": "299.80541981968554", "color": "#1e90ff"}, {"source": "12603804371", "target": "12603804372", "highway": "primary_link", "length": "10.23467979955804", "color": "#808080"}, {"source": "12603804371", "target": "12603804367", "highway": "primary", "length": "458.36276844025707", "color": "#1e90ff"}, {"source": "12603804372", "target": "12603804371", "highway": "primary_link", "length": "10.23467979955804", "color": "#808080"}, {"source": "12603804372", "target": "12603804378", "highway": "primary", "length": "590.0823164297935", "color": "#1e90ff"}, {"source": "12603804377", "target": "12603804378", "highway": "primary_link", "length": "8.907487446702673", "color": "#808080"}, {"source": "12603804377", "target": "12603804371", "highway": "primary", "length": "590.0974055352739", "color": "#1e90ff"}, {"source": "12603804378", "target": "12603804377", "highway": "primary_link", "length": "8.907487446702673", "color": "#808080"}, {"source": "12603804378", "target": "2315200832", "highway": "primary", "length": "240.31181465120648", "color": "#1e90ff"}, {"source": "12603814202", "target": "12603839961", "highway": "primary", "length": "15.8954961945102", "color": "#1e90ff"}, {"source": "12603814202", "target": "12603814227", "highway": "primary", "length": "111.42364007125866", "color": "#1e90ff"}, {"source": "12603814204", "target": "12603814228", "highway": "primary", "length": "32.32538362996727", "color": "#1e90ff"}, {"source": "12603814204", "target": "12603814229", "highway": "residential", "length": "10.794049531811842", "color": "#ff69b4"}, {"source": "12603814205", "target": "10076202261", "highway": "residential", "length": "10.256000685634667", "color": "#ff69b4"}, {"source": "12603814205", "target": "12037644497", "highway": "primary", "length": "67.31499288199092", "color": "#1e90ff"}, {"source": "12603814216", "target": "10076202297", "highway": "primary", "length": "63.819540083635296", "color": "#1e90ff"}, {"source": "12603814216", "target": "10076202308", "highway": "primary", "length": "50.06124446124771", "color": "#1e90ff"}, {"source": "12603814226", "target": "12603814227", "highway": "residential", "length": "10.233810901121057", "color": "#ff69b4"}, {"source": "12603814226", "target": "12603814202", "highway": "primary", "length": "113.28683739561822", "color": "#1e90ff"}, {"source": "12603814226", "target": "12037644500", "highway": "residential", "length": "145.13155939456678", "color": "#ff69b4"}, {"source": "12603814227", "target": "12603814226", "highway": "residential", "length": "10.233810901121057", "color": "#ff69b4"}, {"source": "12603814227", "target": "12603814205", "highway": "primary", "length": "111.53950570265903", "color": "#1e90ff"}, {"source": "12603814228", "target": "12037644497", "highway": "residential", "length": "11.049200839700141", "color": "#ff69b4"}, {"source": "12603814228", "target": "12037644522", "highway": "residential", "length": "102.8710500859536", "color": "#ff69b4"}, {"source": "12603814228", "target": "12603814226", "highway": "primary", "length": "177.17343877320974", "color": "#1e90ff"}, {"source": "12603814229", "target": "10076202263", "highway": "residential", "length": "10.65080682116007", "color": "#ff69b4"}, {"source": "12603814229", "target": "12603814204", "highway": "residential", "length": "10.794049531811842", "color": "#ff69b4"}, {"source": "12603814229", "target": "12603814230", "highway": "primary", "length": "494.650478835709", "color": "#1e90ff"}, {"source": "12603814230", "target": "10076202309", "highway": "unclassified", "length": "294.558922466175", "color": "#808080"}, {"source": "12603814230", "target": "10076202308", "highway": "unclassified", "length": "11.979234340805847", "color": "#808080"}, {"source": "12603814230", "target": "12603814216", "highway": "primary", "length": "50.22514837291743", "color": "#1e90ff"}, {"source": "12603823262", "target": "12603832612", "highway": "residential", "length": "9.617698604140024", "color": "#ff69b4"}, {"source": "12603823262", "target": "12603832609", "highway": "primary", "length": "121.90359461867304", "color": "#1e90ff"}, {"source": "12603823267", "target": "12603832680", "highway": "secondary", "length": "9.069857307267432", "color": "#ffa500"}, {"source": "12603823267", "target": "12603839939", "highway": "secondary", "length": "443.8114304023254", "color": "#ffa500"}, {"source": "12603823287", "target": "12603832636", "highway": "primary", "length": "32.58714460612236", "color": "#1e90ff"}, {"source": "12603823287", "target": "12603832631", "highway": "primary", "length": "320.8473044166799", "color": "#1e90ff"}, {"source": "12603832612", "target": "12037644493", "highway": "residential", "length": "59.591385041745816", "color": "#ff69b4"}, {"source": "12603832612", "target": "12603823262", "highway": "residential", "length": "9.617698604140024", "color": "#ff69b4"}, {"source": "12603832612", "target": "12603832624", "highway": "primary", "length": "471.1380239152275", "color": "#1e90ff"}, {"source": "12603832624", "target": "12603832625", "highway": "primary_link", "length": "9.464449518697442", "color": "#808080"}, {"source": "12603832624", "target": "12603832630", "highway": "primary", "length": "521.3139517366018", "color": "#1e90ff"}, {"source": "12603832625", "target": "12603832624", "highway": "primary_link", "length": "9.464449518697442", "color": "#808080"}, {"source": "12603832625", "target": "12603823262", "highway": "primary", "length": "474.0890300984024", "color": "#1e90ff"}, {"source": "12603832630", "target": "12603832631", "highway": "primary_link", "length": "10.27628576118089", "color": "#808080"}, {"source": "12603832630", "target": "12603823287", "highway": "primary", "length": "321.70744457710464", "color": "#1e90ff"}, {"source": "12603832631", "target": "12603832630", "highway": "primary_link", "length": "10.27628576118089", "color": "#808080"}, {"source": "12603832631", "target": "12603832625", "highway": "primary", "length": "520.8460519677625", "color": "#1e90ff"}, {"source": "12603832636", "target": "12603823287", "highway": "primary", "length": "32.58714460612236", "color": "#1e90ff"}, {"source": "12603832636", "target": "12603832659", "highway": "primary", "length": "1142.0732225268362", "color": "#1e90ff"}, {"source": "12603832636", "target": "12603832636", "highway": "tertiary", "length": "1052.2769145153266", "color": "#32cd32"}, {"source": "12603832659", "target": "2385246423", "highway": "primary", "length": "1084.3998794031295", "color": "#1e90ff"}, {"source": "12603832659", "target": "12603832636", "highway": "primary", "length": "1142.0732225268362", "color": "#1e90ff"}, {"source": "12603832659", "target": "12603832680", "highway": "tertiary", "length": "388.17651647339545", "color": "#32cd32"}, {"source": "12603832680", "target": "12603832681", "highway": "secondary", "length": "27.839354385770275", "color": "#ffa500"}, {"source": "12603832680", "target": "12603832681", "highway": "tertiary", "length": "324.8675488669369", "color": "#32cd32"}, {"source": "12603832680", "target": "12603823267", "highway": "secondary", "length": "9.069857307267432", "color": "#ffa500"}, {"source": "12603832681", "target": "12603832680", "highway": "secondary", "length": "27.839354385770275", "color": "#ffa500"}, {"source": "12603832681", "target": "12603832659", "highway": "tertiary", "length": "369.9165122060209", "color": "#32cd32"}, {"source": "12603839904", "target": "10076202296", "highway": "residential", "length": "96.81225597886048", "color": "#ff69b4"}, {"source": "12603839904", "target": "12603839945", "highway": "secondary", "length": "245.61093552549795", "color": "#ffa500"}, {"source": "12603839906", "target": "12603839960", "highway": "unclassified", "length": "8.604719981863932", "color": "#808080"}, {"source": "12603839906", "target": "12603839961", "highway": "secondary", "length": "174.9290805357808", "color": "#ffa500"}, {"source": "12603839907", "target": "12603839959", "highway": "residential", "length": "8.82833822264996", "color": "#ff69b4"}, {"source": "12603839907", "target": "12603839906", "highway": "secondary", "length": "48.010944979360964", "color": "#ffa500"}, {"source": "12603839907", "target": "10076202276", "highway": "residential", "length": "184.78757514414656", "color": "#ff69b4"}, {"source": "12603839908", "target": "12603839958", "highway": "unclassified", "length": "9.610548828590463", "color": "#808080"}, {"source": "12603839908", "target": "10076202309", "highway": "unclassified", "length": "907.5517910981276", "color": "#808080"}, {"source": "12603839908", "target": "12603839907", "highway": "secondary", "length": "436.52135939714265", "color": "#ffa500"}, {"source": "12603839938", "target": "12603839939", "highway": "secondary_link", "length": "10.756746269392016", "color": "#808080"}, {"source": "12603839938", "target": "12603823267", "highway": "secondary", "length": "445.24510297025915", "color": "#ffa500"}, {"source": "12603839939", "target": "12603839938", "highway": "secondary_link", "length": "10.756746269392016", "color": "#808080"}, {"source": "12603839939", "target": "12603839944", "highway": "secondary", "length": "1166.4094836195634", "color": "#ffa500"}, {"source": "12603839944", "target": "12603839945", "highway": "residential", "length": "8.683763682370294", "color": "#ff69b4"}, {"source": "12603839944", "target": "10076202291", "highway": "residential", "length": "176.81607999170419", "color": "#ff69b4"}, {"source": "12603839944", "target": "12603839962", "highway": "secondary", "length": "685.9678688382172", "color": "#ffa500"}, {"source": "12603839945", "target": "12603839944", "highway": "residential", "length": "8.683763682370294", "color": "#ff69b4"}, {"source": "12603839945", "target": "12603839938", "highway": "secondary", "length": "1166.9847918157093", "color": "#ffa500"}, {"source": "12603839958", "target": "12603839908", "highway": "unclassified", "length": "9.610548828590463", "color": "#808080"}, {"source": "12603839958", "target": "3643158513", "highway": "unclassified", "length": "9214.658692444049", "color": "#808080"}, {"source": "12603839958", "target": "617194802", "highway": "secondary", "length": "1622.4419753314332", "color": "#ffa500"}, {"source": "12603839959", "target": "12603839907", "highway": "residential", "length": "8.82833822264996", "color": "#ff69b4"}, {"source": "12603839959", "target": "12603839958", "highway": "secondary", "length": "440.4120179191995", "color": "#ffa500"}, {"source": "12603839960", "target": "12603839906", "highway": "unclassified", "length": "8.604719981863932", "color": "#808080"}, {"source": "12603839960", "target": "12603839959", "highway": "secondary", "length": "48.53972233832066", "color": "#ffa500"}, {"source": "12603839960", "target": "12231648348", "highway": "unclassified", "length": "1299.5494906450747", "color": "#808080"}, {"source": "12603839961", "target": "12603814202", "highway": "primary", "length": "15.8954961945102", "color": "#1e90ff"}, {"source": "12603839961", "target": "12603839962", "highway": "primary", "length": "9.254550448928883", "color": "#1e90ff"}, {"source": "12603839961", "target": "12603839904", "highway": "secondary", "length": "443.355088563164", "color": "#ffa500"}, {"source": "12603839962", "target": "2315200832", "highway": "primary", "length": "27.707663959397827", "color": "#1e90ff"}, {"source": "12603839962", "target": "12603839961", "highway": "primary", "length": "9.254550448928883", "color": "#1e90ff"}, {"source": "12603839962", "target": "12603839960", "highway": "secondary", "length": "177.04422928615327", "color": "#ffa500"}, {"source": "12637909761", "target": "12637909779", "highway": "tertiary", "length": "8.022609380215442", "color": "#32cd32"}, {"source": "12637909761", "target": "12637909763", "highway": "tertiary", "length": "95.71554661489", "color": "#32cd32"}, {"source": "12637909761", "target": "12637937243", "highway": "residential", "length": "152.0991075582346", "color": "#ff69b4"}, {"source": "12637909763", "target": "12637909767", "highway": "tertiary", "length": "80.30678285242692", "color": "#32cd32"}, {"source": "12637909763", "target": "12637909761", "highway": "tertiary", "length": "95.71554661489", "color": "#32cd32"}, {"source": "12637909763", "target": "3643887189", "highway": "residential", "length": "163.71814884205574", "color": "#ff69b4"}, {"source": "12637909767", "target": "12637909768", "highway": "residential", "length": "13.681942631173676", "color": "#ff69b4"}, {"source": "12637909767", "target": "3643887226", "highway": "tertiary", "length": "24.60198023125164", "color": "#32cd32"}, {"source": "12637909767", "target": "12637909763", "highway": "tertiary", "length": "80.30678285242692", "color": "#32cd32"}, {"source": "12637909768", "target": "12637909767", "highway": "residential", "length": "13.681942631173676", "color": "#ff69b4"}, {"source": "12637909768", "target": "12637909781", "highway": "residential", "length": "16.336924994766225", "color": "#ff69b4"}, {"source": "12637909768", "target": "12637937268", "highway": "residential", "length": "48.57781979011849", "color": "#ff69b4"}, {"source": "12637909768", "target": "12637937243", "highway": "residential", "length": "84.0391945197613", "color": "#ff69b4"}, {"source": "12637909772", "target": "12637937234", "highway": "residential", "length": "75.9479400806147", "color": "#ff69b4"}, {"source": "12637909772", "target": "12637937240", "highway": "residential", "length": "27.681583602439233", "color": "#ff69b4"}, {"source": "12637909772", "target": "12637937268", "highway": "residential", "length": "41.93253815194247", "color": "#ff69b4"}, {"source": "12637909772", "target": "12637937236", "highway": "residential", "length": "45.26075236638791", "color": "#ff69b4"}, {"source": "12637909774", "target": "12637937240", "highway": "residential", "length": "26.74198768824624", "color": "#ff69b4"}, {"source": "12637909774", "target": "12637909778", "highway": "residential", "length": "110.38995312094846", "color": "#ff69b4"}, {"source": "12637909774", "target": "12637937239", "highway": "residential", "length": "66.72933731308257", "color": "#ff69b4"}, {"source": "12637909778", "target": "12637909774", "highway": "residential", "length": "110.38995312094846", "color": "#ff69b4"}, {"source": "12637909779", "target": "12637909761", "highway": "tertiary", "length": "8.022609380215442", "color": "#32cd32"}, {"source": "12637909779", "target": "3643887277", "highway": "tertiary", "length": "970.0935828363366", "color": "#32cd32"}, {"source": "12637909779", "target": "3643887245", "highway": "unclassified", "length": "567.2338833267235", "color": "#808080"}, {"source": "12637909781", "target": "12637937264", "highway": "residential", "length": "31.307738140981044", "color": "#ff69b4"}, {"source": "12637909781", "target": "12637909768", "highway": "residential", "length": "16.336924994766225", "color": "#ff69b4"}, {"source": "12637909781", "target": "3643887226", "highway": "residential", "length": "36.00771674134711", "color": "#ff69b4"}, {"source": "12637937232", "target": "12637937234", "highway": "residential", "length": "29.803533771571445", "color": "#ff69b4"}, {"source": "12637937234", "target": "12637909772", "highway": "residential", "length": "75.9479400806147", "color": "#ff69b4"}, {"source": "12637937234", "target": "12637937232", "highway": "residential", "length": "29.803533771571445", "color": "#ff69b4"}, {"source": "12637937234", "target": "12637937243", "highway": "residential", "length": "70.64218120281491", "color": "#ff69b4"}, {"source": "12637937236", "target": "12637909772", "highway": "residential", "length": "45.26075236638791", "color": "#ff69b4"}, {"source": "12637937239", "target": "12637909774", "highway": "residential", "length": "66.72933731308257", "color": "#ff69b4"}, {"source": "12637937240", "target": "12637909774", "highway": "residential", "length": "26.74198768824624", "color": "#ff69b4"}, {"source": "12637937240", "target": "12637909772", "highway": "residential", "length": "27.681583602439233", "color": "#ff69b4"}, {"source": "12637937240", "target": "12637937242", "highway": "residential", "length": "30.52238268715962", "color": "#ff69b4"}, {"source": "12637937242", "target": "12637937240", "highway": "residential", "length": "30.52238268715962", "color": "#ff69b4"}, {"source": "12637937243", "target": "12637937234", "highway": "residential", "length": "70.6421812028149", "color": "#ff69b4"}, {"source": "12637937243", "target": "12637909768", "highway": "residential", "length": "84.03919451976128", "color": "#ff69b4"}, {"source": "12637937243", "target": "12637909761", "highway": "residential", "length": "152.0991075582346", "color": "#ff69b4"}, {"source": "12637937258", "target": "3643887189", "highway": "tertiary", "length": "66.37969090406739", "color": "#32cd32"}, {"source": "12637937258", "target": "3643887226", "highway": "tertiary", "length": "44.67725252995132", "color": "#32cd32"}, {"source": "12637937258", "target": "12637937264", "highway": "residential", "length": "72.14613763974995", "color": "#ff69b4"}, {"source": "12637937264", "target": "12637909781", "highway": "residential", "length": "31.307738140981044", "color": "#ff69b4"}, {"source": "12637937264", "target": "12637937258", "highway": "residential", "length": "72.14613763974995", "color": "#ff69b4"}, {"source": "12637937264", "target": "12637937268", "highway": "residential", "length": "79.304260634464", "color": "#ff69b4"}, {"source": "12637937268", "target": "12637909772", "highway": "residential", "length": "41.93253815194247", "color": "#ff69b4"}, {"source": "12637937268", "target": "12637909768", "highway": "residential", "length": "48.57781979011848", "color": "#ff69b4"}, {"source": "12637937268", "target": "12637937264", "highway": "residential", "length": "79.304260634464", "color": "#ff69b4"}, {"source": "12638005871", "target": "12543640782", "highway": "residential", "length": "80.10668943649522", "color": "#ff69b4"}, {"source": "12638005874", "target": "12638005875", "highway": "residential", "length": "30.611275402302752", "color": "#ff69b4"}, {"source": "12638005874", "target": "12638005880", "highway": "residential", "length": "27.223886801901802", "color": "#ff69b4"}, {"source": "12638005874", "target": "12638005877", "highway": "residential", "length": "27.724108402255133", "color": "#ff69b4"}, {"source": "12638005874", "target": "12543640782", "highway": "residential", "length": "91.03416976950878", "color": "#ff69b4"}, {"source": "12638005875", "target": "12638005874", "highway": "residential", "length": "30.611275402302752", "color": "#ff69b4"}, {"source": "12638005876", "target": "12543640781", "highway": "residential", "length": "82.6050952921817", "color": "#ff69b4"}, {"source": "12638005877", "target": "12638005878", "highway": "residential", "length": "55.39654388151721", "color": "#ff69b4"}, {"source": "12638005877", "target": "12543640781", "highway": "residential", "length": "96.01872592804197", "color": "#ff69b4"}, {"source": "12638005877", "target": "12638005874", "highway": "residential", "length": "27.724108402255133", "color": "#ff69b4"}, {"source": "12638005877", "target": "12638005882", "highway": "residential", "length": "35.308621044944665", "color": "#ff69b4"}, {"source": "12638005878", "target": "12638005877", "highway": "residential", "length": "55.39654388151721", "color": "#ff69b4"}, {"source": "12638005878", "target": "12638005882", "highway": "residential", "length": "85.04864595856789", "color": "#ff69b4"}, {"source": "12638005878", "target": "12543684548", "highway": "residential", "length": "79.13822596089405", "color": "#ff69b4"}, {"source": "12638005879", "target": "12543640783", "highway": "residential", "length": "55.41992335951613", "color": "#ff69b4"}, {"source": "12638005880", "target": "12638005881", "highway": "residential", "length": "25.325167205486345", "color": "#ff69b4"}, {"source": "12638005880", "target": "12543640783", "highway": "residential", "length": "89.2123674952626", "color": "#ff69b4"}, {"source": "12638005880", "target": "12638005885", "highway": "residential", "length": "29.871256473969947", "color": "#ff69b4"}, {"source": "12638005880", "target": "12638005874", "highway": "residential", "length": "27.223886801901802", "color": "#ff69b4"}, {"source": "12638005881", "target": "12638005880", "highway": "residential", "length": "25.325167205486345", "color": "#ff69b4"}, {"source": "12638005882", "target": "12638005877", "highway": "residential", "length": "35.308621044944665", "color": "#ff69b4"}, {"source": "12638005882", "target": "12543640779", "highway": "residential", "length": "100.85577831173428", "color": "#ff69b4"}, {"source": "12638005882", "target": "12638005878", "highway": "residential", "length": "85.0486459585679", "color": "#ff69b4"}, {"source": "12638005884", "target": "12638012501", "highway": "residential", "length": "51.05573857993379", "color": "#ff69b4"}, {"source": "12638005885", "target": "12638012501", "highway": "residential", "length": "17.82962785182757", "color": "#ff69b4"}, {"source": "12638005885", "target": "12638005880", "highway": "residential", "length": "29.871256473969947", "color": "#ff69b4"}, {"source": "12638005885", "target": "12543640784", "highway": "residential", "length": "88.92211589323563", "color": "#ff69b4"}, {"source": "12638005900", "target": "12638012506", "highway": "residential", "length": "128.81858091369836", "color": "#ff69b4"}, {"source": "12638012501", "target": "12638005885", "highway": "residential", "length": "17.82962785182757", "color": "#ff69b4"}, {"source": "12638012501", "target": "12638005884", "highway": "residential", "length": "51.05573857993379", "color": "#ff69b4"}, {"source": "12638012501", "target": "12543684546", "highway": "residential", "length": "119.66581902688014", "color": "#ff69b4"}, {"source": "12638012506", "target": "12638005900", "highway": "residential", "length": "128.81858091369836", "color": "#ff69b4"}, {"source": "12638012506", "target": "12543640779", "highway": "residential", "length": "50.065530307130494", "color": "#ff69b4"}, {"source": "12638012506", "target": "12638012507", "highway": "residential", "length": "48.502359736828495", "color": "#ff69b4"}, {"source": "12638012507", "target": "12638012506", "highway": "residential", "length": "48.502359736828495", "color": "#ff69b4"}, {"source": "12638015721", "target": "12638229749", "highway": "residential", "length": "9.267236905996393", "color": "#ff69b4"}, {"source": "12638015721", "target": "11971384680", "highway": "primary", "length": "152.38786070406113", "color": "#1e90ff"}, {"source": "12638015721", "target": "12638015734", "highway": "residential", "length": "465.5163976211676", "color": "#ff69b4"}, {"source": "12638015730", "target": "12638015734", "highway": "residential", "length": "213.62803499854311", "color": "#ff69b4"}, {"source": "12638015730", "target": "12638015758", "highway": "residential", "length": "580.7295046276466", "color": "#ff69b4"}, {"source": "12638015730", "target": "12638015762", "highway": "residential", "length": "114.37325175364359", "color": "#ff69b4"}, {"source": "12638015734", "target": "12638015721", "highway": "residential", "length": "465.5163976211676", "color": "#ff69b4"}, {"source": "12638015734", "target": "12638015730", "highway": "residential", "length": "213.62803499854314", "color": "#ff69b4"}, {"source": "12638015734", "target": "12638015780", "highway": "residential", "length": "563.5431217716903", "color": "#ff69b4"}, {"source": "12638015734", "target": "12638015763", "highway": "residential", "length": "483.201267300276", "color": "#ff69b4"}, {"source": "12638015749", "target": "12638015750", "highway": "residential", "length": "19.16642708853289", "color": "#ff69b4"}, {"source": "12638015749", "target": "12638015758", "highway": "residential", "length": "260.40150476505534", "color": "#ff69b4"}, {"source": "12638015749", "target": "12638015758", "highway": "residential", "length": "270.82838950192706", "color": "#ff69b4"}, {"source": "12638015750", "target": "12638015749", "highway": "residential", "length": "19.16642708853289", "color": "#ff69b4"}, {"source": "12638015758", "target": "12638015730", "highway": "residential", "length": "580.7295046276464", "color": "#ff69b4"}, {"source": "12638015758", "target": "12638015749", "highway": "residential", "length": "260.40150476505534", "color": "#ff69b4"}, {"source": "12638015758", "target": "12638015749", "highway": "residential", "length": "270.82838950192706", "color": "#ff69b4"}, {"source": "12638015762", "target": "12638015730", "highway": "residential", "length": "114.37325175364356", "color": "#ff69b4"}, {"source": "12638015763", "target": "12638015734", "highway": "residential", "length": "483.20126730027596", "color": "#ff69b4"}, {"source": "12638015780", "target": "12638015734", "highway": "residential", "length": "563.5431217716903", "color": "#ff69b4"}, {"source": "12638019561", "target": "9835026352", "highway": "tertiary", "length": "958.8041837863177", "color": "#32cd32"}, {"source": "12638019561", "target": "9835026307", "highway": "tertiary", "length": "1765.9383814667483", "color": "#32cd32"}, {"source": "12638019561", "target": "12638019567", "highway": "residential", "length": "316.0645131699705", "color": "#ff69b4"}, {"source": "12638019562", "target": "12638019565", "highway": "residential", "length": "55.98957903908373", "color": "#ff69b4"}, {"source": "12638019565", "target": "12638019566", "highway": "residential", "length": "34.53971651983002", "color": "#ff69b4"}, {"source": "12638019565", "target": "12638019566", "highway": "residential", "length": "85.86624770057071", "color": "#ff69b4"}, {"source": "12638019565", "target": "12638019577", "highway": "residential", "length": "44.55248886433924", "color": "#ff69b4"}, {"source": "12638019565", "target": "12638019562", "highway": "residential", "length": "55.98957903908373", "color": "#ff69b4"}, {"source": "12638019566", "target": "12638019567", "highway": "residential", "length": "35.78112988315282", "color": "#ff69b4"}, {"source": "12638019566", "target": "12638019565", "highway": "residential", "length": "34.53971651983002", "color": "#ff69b4"}, {"source": "12638019566", "target": "12638019565", "highway": "residential", "length": "85.86624770057071", "color": "#ff69b4"}, {"source": "12638019566", "target": "12638019581", "highway": "residential", "length": "42.987731037936115", "color": "#ff69b4"}, {"source": "12638019567", "target": "12638019566", "highway": "residential", "length": "35.78112988315282", "color": "#ff69b4"}, {"source": "12638019567", "target": "12638019576", "highway": "residential", "length": "50.67727652148972", "color": "#ff69b4"}, {"source": "12638019567", "target": "12638019575", "highway": "residential", "length": "40.97212363570633", "color": "#ff69b4"}, {"source": "12638019567", "target": "12638019561", "highway": "residential", "length": "316.0645131699705", "color": "#ff69b4"}, {"source": "12638019575", "target": "12638019567", "highway": "residential", "length": "40.97212363570633", "color": "#ff69b4"}, {"source": "12638019576", "target": "12638019567", "highway": "residential", "length": "50.67727652148972", "color": "#ff69b4"}, {"source": "12638019577", "target": "12638019565", "highway": "residential", "length": "44.55248886433924", "color": "#ff69b4"}, {"source": "12638019581", "target": "12638019566", "highway": "residential", "length": "42.987731037936115", "color": "#ff69b4"}, {"source": "12638133750", "target": "11971367955", "highway": "primary", "length": "895.8574985388174", "color": "#1e90ff"}, {"source": "12638133750", "target": "12638133753", "highway": "residential", "length": "61.97164396798664", "color": "#ff69b4"}, {"source": "12638133753", "target": "12638133763", "highway": "residential", "length": "39.671086157497214", "color": "#ff69b4"}, {"source": "12638133753", "target": "12638133755", "highway": "residential", "length": "75.78605760988337", "color": "#ff69b4"}, {"source": "12638133753", "target": "12638133750", "highway": "residential", "length": "61.97164396798664", "color": "#ff69b4"}, {"source": "12638133755", "target": "12638133756", "highway": "residential", "length": "81.66832358260838", "color": "#ff69b4"}, {"source": "12638133755", "target": "12638133753", "highway": "residential", "length": "75.78605760988337", "color": "#ff69b4"}, {"source": "12638133755", "target": "12638133770", "highway": "residential", "length": "88.51720070190208", "color": "#ff69b4"}, {"source": "12638133756", "target": "12638133757", "highway": "residential", "length": "68.67491581625674", "color": "#ff69b4"}, {"source": "12638133756", "target": "12638133757", "highway": "residential", "length": "179.70737864984514", "color": "#ff69b4"}, {"source": "12638133756", "target": "12638133755", "highway": "residential", "length": "81.66832358260838", "color": "#ff69b4"}, {"source": "12638133757", "target": "12638133758", "highway": "residential", "length": "379.18933634169144", "color": "#ff69b4"}, {"source": "12638133757", "target": "12638133756", "highway": "residential", "length": "68.67491581625674", "color": "#ff69b4"}, {"source": "12638133757", "target": "12638133756", "highway": "residential", "length": "179.70737864984514", "color": "#ff69b4"}, {"source": "12638133758", "target": "12638133757", "highway": "residential", "length": "379.18933634169144", "color": "#ff69b4"}, {"source": "12638133763", "target": "12638133753", "highway": "residential", "length": "39.671086157497214", "color": "#ff69b4"}, {"source": "12638133763", "target": "12638133768", "highway": "residential", "length": "25.162788791664347", "color": "#ff69b4"}, {"source": "12638133763", "target": "12638133767", "highway": "residential", "length": "118.39355557257781", "color": "#ff69b4"}, {"source": "12638133767", "target": "12638133763", "highway": "residential", "length": "118.39355557257781", "color": "#ff69b4"}, {"source": "12638133768", "target": "12638133763", "highway": "residential", "length": "25.162788791664347", "color": "#ff69b4"}, {"source": "12638133770", "target": "12638133755", "highway": "residential", "length": "88.51720070190208", "color": "#ff69b4"}, {"source": "12638229749", "target": "12638015721", "highway": "residential", "length": "9.267236905996393", "color": "#ff69b4"}, {"source": "12638229749", "target": "11971384687", "highway": "primary", "length": "633.8613590323137", "color": "#1e90ff"}, {"source": "12701899328", "target": "12039364846", "highway": "primary", "length": "58.72248327174746", "color": "#1e90ff"}, {"source": "12701899328", "target": "2328280192", "highway": "primary", "length": "127.09321450399923", "color": "#1e90ff"}, {"source": "12701899328", "target": "12701899330", "highway": "residential", "length": "194.30525967710565", "color": "#ff69b4"}, {"source": "12701899330", "target": "12701899334", "highway": "residential", "length": "108.40641524626005", "color": "#ff69b4"}, {"source": "12701899330", "target": "12701899335", "highway": "residential", "length": "68.92007891798787", "color": "#ff69b4"}, {"source": "12701899330", "target": "12701899328", "highway": "residential", "length": "194.30525967710565", "color": "#ff69b4"}, {"source": "12701899333", "target": "12701899335", "highway": "residential", "length": "125.19378327981434", "color": "#ff69b4"}, {"source": "12701899334", "target": "12701899330", "highway": "residential", "length": "108.40641524626005", "color": "#ff69b4"}, {"source": "12701899335", "target": "12701899336", "highway": "residential", "length": "116.13275098791019", "color": "#ff69b4"}, {"source": "12701899335", "target": "12701899333", "highway": "residential", "length": "125.19378327981434", "color": "#ff69b4"}, {"source": "12701899335", "target": "12701899330", "highway": "residential", "length": "68.92007891798787", "color": "#ff69b4"}, {"source": "12701899336", "target": "12701899335", "highway": "residential", "length": "116.13275098791019", "color": "#ff69b4"}, {"source": "12701899341", "target": "2339279292", "highway": "unclassified", "length": "247.09301308504922", "color": "#808080"}, {"source": "12762615585", "target": "12762615586", "highway": "unclassified", "length": "1730.3465803358747", "color": "#808080"}, {"source": "12762615586", "target": "12762615585", "highway": "unclassified", "length": "1730.346580335875", "color": "#808080"}, {"source": "12762615586", "target": "12762615594", "highway": "unclassified", "length": "609.1983703812105", "color": "#808080"}, {"source": "12762615586", "target": "12762615593", "highway": "unclassified", "length": "1333.396342690396", "color": "#808080"}, {"source": "12762615593", "target": "12762615586", "highway": "unclassified", "length": "1333.3963426903963", "color": "#808080"}, {"source": "12762615594", "target": "12762615586", "highway": "unclassified", "length": "609.1983703812105", "color": "#808080"}, {"source": "12762615594", "target": "5868899481", "highway": "unclassified", "length": "101.64131151498071", "color": "#808080"}, {"source": "12762615594", "target": "5868899490", "highway": "unclassified", "length": "161.38933388010707", "color": "#808080"}, {"source": "12762615598", "target": "5868899490", "highway": "tertiary", "length": "387.7425794575224", "color": "#32cd32"}, {"source": "12762615598", "target": "12039383619", "highway": "tertiary", "length": "301.2203750434711", "color": "#32cd32"}, {"source": "12762615598", "target": "12762615606", "highway": "unclassified", "length": "275.11321280008485", "color": "#808080"}, {"source": "12762615606", "target": "12762615608", "highway": "unclassified", "length": "76.74639923471574", "color": "#808080"}, {"source": "12762615606", "target": "12762615598", "highway": "unclassified", "length": "275.11321280008485", "color": "#808080"}, {"source": "12762615606", "target": "12762615639", "highway": "unclassified", "length": "1382.1185325555325", "color": "#808080"}, {"source": "12762615608", "target": "12762615606", "highway": "unclassified", "length": "76.74639923471574", "color": "#808080"}, {"source": "12762615639", "target": "12762615606", "highway": "unclassified", "length": "1382.1185325555323", "color": "#808080"}, {"source": "12768304655", "target": "5864929901", "highway": "unclassified", "length": "1679.4704812696523", "color": "#808080"}, {"source": "12768304655", "target": "12231648563", "highway": "unclassified", "length": "1387.8933335778288", "color": "#808080"}, {"source": "12768304655", "target": "12768304688", "highway": "unclassified", "length": "972.9084888103386", "color": "#808080"}, {"source": "12768304687", "target": "12768304688", "highway": "unclassified", "length": "654.4319848815401", "color": "#808080"}, {"source": "12768304688", "target": "12768304687", "highway": "unclassified", "length": "654.4319848815401", "color": "#808080"}, {"source": "12768304688", "target": "12768304655", "highway": "unclassified", "length": "972.9084888103383", "color": "#808080"}, {"source": "12768304688", "target": "12231648563", "highway": "unclassified", "length": "1522.6126610039419", "color": "#808080"}, {"source": "12768311726", "target": "5864929880", "highway": "tertiary", "length": "465.4690962385025", "color": "#32cd32"}, {"source": "12768311726", "target": "5864929805", "highway": "tertiary", "length": "1486.150382461384", "color": "#32cd32"}, {"source": "12768311726", "target": "12231648563", "highway": "unclassified", "length": "1077.9513719886045", "color": "#808080"}]